[
    {
        "warehouseNumber": "362",
        "warehouseName": "Hoover",
        "latitude": 33.379,
        "longitude": -86.812,
        "address": "3650 GALLERIA CIR",
        "city": "HOOVER",
        "state": "AL",
        "zipCode": "35244"
    },
    {
        "warehouseNumber": "356",
        "warehouseName": "Huntsville",
        "latitude": 34.744,
        "longitude": -86.603,
        "address": "1205 N. MEMORIAL PKWY",
        "city": "HUNTSVILLE",
        "state": "AL",
        "zipCode": "35801"
    },
    {
        "warehouseNumber": "1192",
        "warehouseName": "Mobile",
        "latitude": 30.649,
        "longitude": -88.119,
        "address": "1450 TINGLE CIRCLE WEST",
        "city": "MOBILE",
        "state": "AL",
        "zipCode": "36606"
    },
    {
        "warehouseNumber": "1009",
        "warehouseName": "Montgomery",
        "latitude": 32.364,
        "longitude": -86.151,
        "address": "8251 EASTCHASE PKWY",
        "city": "MONTGOMERY",
        "state": "AL",
        "zipCode": "36117"
    },
    {
        "warehouseNumber": "10",
        "warehouseName": "Anchorage",
        "latitude": 61.143,
        "longitude": -149.885,
        "address": "330 W DIMOND BLVD",
        "city": "ANCHORAGE",
        "state": "AK",
        "zipCode": "99515"
    },
    {
        "warehouseNumber": "1661",
        "warehouseName": "Anchorage Business Center",
        "latitude": 61.229,
        "longitude": -149.738,
        "address": "1074 N MULDOON RD",
        "city": "ANCHORAGE",
        "state": "AK",
        "zipCode": "99504"
    },
    {
        "warehouseNumber": "1699",
        "warehouseName": "Anchorage Home Showroom",
        "latitude": 61.143,
        "longitude": -149.88,
        "address": "8600 KING STREET",
        "city": "ANCHORAGE",
        "state": "AK",
        "zipCode": "99515"
    },
    {
        "warehouseNumber": "1342",
        "warehouseName": "Fairbanks",
        "latitude": 64.853,
        "longitude": -147.708,
        "address": "48 COLLEGE RD",
        "city": "FAIRBANKS",
        "state": "AK",
        "zipCode": "99701"
    },
    {
        "warehouseNumber": "107",
        "warehouseName": "Juneau",
        "latitude": 58.359,
        "longitude": -134.483,
        "address": "5225 COMMERCIAL BLVD",
        "city": "JUNEAU",
        "state": "AK",
        "zipCode": "99801"
    },
    {
        "warehouseNumber": "63",
        "warehouseName": "NE Anchorage",
        "latitude": 61.21,
        "longitude": -149.804,
        "address": "4125 DEBARR RD",
        "city": "ANCHORAGE",
        "state": "AK",
        "zipCode": "99508"
    },
    {
        "warehouseNumber": "691",
        "warehouseName": "Avondale",
        "latitude": 33.467,
        "longitude": -112.274,
        "address": "10000 W MCDOWELL RD",
        "city": "AVONDALE",
        "state": "AZ",
        "zipCode": "85392"
    },
    {
        "warehouseNumber": "1653",
        "warehouseName": "Buckeye",
        "latitude": 33.46,
        "longitude": -112.501,
        "address": "1111 N. VERRADO WAY",
        "city": "BUCKEYE",
        "state": "AZ",
        "zipCode": "85326"
    },
    {
        "warehouseNumber": "738",
        "warehouseName": "Cave Creek",
        "latitude": 33.671,
        "longitude": -112.028,
        "address": "2450 E BEARDSLEY RD",
        "city": "PHOENIX",
        "state": "AZ",
        "zipCode": "85050"
    },
    {
        "warehouseNumber": "736",
        "warehouseName": "Chandler",
        "latitude": 33.293,
        "longitude": -111.9,
        "address": "595 S GALLERIA WAY",
        "city": "CHANDLER",
        "state": "AZ",
        "zipCode": "85226"
    },
    {
        "warehouseNumber": "481",
        "warehouseName": "Gilbert",
        "latitude": 33.377,
        "longitude": -111.841,
        "address": "1415 N ARIZONA AVE",
        "city": "GILBERT",
        "state": "AZ",
        "zipCode": "85233"
    },
    {
        "warehouseNumber": "674",
        "warehouseName": "Glendale",
        "latitude": 33.643,
        "longitude": -112.233,
        "address": "17550 N 79TH AVE",
        "city": "GLENDALE",
        "state": "AZ",
        "zipCode": "85308"
    },
    {
        "warehouseNumber": "1028",
        "warehouseName": "Mesa",
        "latitude": 33.389,
        "longitude": -111.669,
        "address": "1444 S SOSSAMAN RD",
        "city": "MESA",
        "state": "AZ",
        "zipCode": "85209"
    },
    {
        "warehouseNumber": "490",
        "warehouseName": "N Phoenix",
        "latitude": 33.66,
        "longitude": -112.116,
        "address": "19001 N 27TH AVE",
        "city": "PHOENIX",
        "state": "AZ",
        "zipCode": "85027"
    },
    {
        "warehouseNumber": "431",
        "warehouseName": "NW Tucson",
        "latitude": 32.326,
        "longitude": -111.049,
        "address": "3901 W COSTCO DR",
        "city": "TUCSON",
        "state": "AZ",
        "zipCode": "85741"
    },
    {
        "warehouseNumber": "1058",
        "warehouseName": "Paradise Valley",
        "latitude": 33.604,
        "longitude": -111.986,
        "address": "4570 E CACTUS RD",
        "city": "PHOENIX",
        "state": "AZ",
        "zipCode": "85032"
    },
    {
        "warehouseNumber": "827",
        "warehouseName": "Phoenix Business Center",
        "latitude": 33.492,
        "longitude": -112.128,
        "address": "3801 N 33RD AVE",
        "city": "PHOENIX",
        "state": "AZ",
        "zipCode": "85017"
    },
    {
        "warehouseNumber": "466",
        "warehouseName": "Prescott",
        "latitude": 34.548,
        "longitude": -112.397,
        "address": "3911 E STATE ROUTE 69",
        "city": "PRESCOTT",
        "state": "AZ",
        "zipCode": "86301"
    },
    {
        "warehouseNumber": "1620",
        "warehouseName": "Queen Creek",
        "latitude": 33.265,
        "longitude": -111.637,
        "address": "20260 S ELLSWORTH RD",
        "city": "QUEEN CREEK",
        "state": "AZ",
        "zipCode": "85142"
    },
    {
        "warehouseNumber": "644",
        "warehouseName": "SE Gilbert",
        "latitude": 33.296,
        "longitude": -111.746,
        "address": "2887 S MARKET ST",
        "city": "GILBERT",
        "state": "AZ",
        "zipCode": "85295"
    },
    {
        "warehouseNumber": "1079",
        "warehouseName": "SW Tucson",
        "latitude": 32.181,
        "longitude": -110.947,
        "address": "1650 E TUCSON MARKETPLACE BLVD",
        "city": "TUCSON",
        "state": "AZ",
        "zipCode": "85713"
    },
    {
        "warehouseNumber": "427",
        "warehouseName": "Scottsdale",
        "latitude": 33.623,
        "longitude": -111.901,
        "address": "15255 N HAYDEN RD",
        "city": "SCOTTSDALE",
        "state": "AZ",
        "zipCode": "85260"
    },
    {
        "warehouseNumber": "1375",
        "warehouseName": "Surprise",
        "latitude": 33.608,
        "longitude": -112.412,
        "address": "16385 W. WADDELL RD.",
        "city": "SURPRISE",
        "state": "AZ",
        "zipCode": "85388"
    },
    {
        "warehouseNumber": "436",
        "warehouseName": "Tempe",
        "latitude": 33.347,
        "longitude": -111.961,
        "address": "1445 W ELLIOT RD",
        "city": "TEMPE",
        "state": "AZ",
        "zipCode": "85284"
    },
    {
        "warehouseNumber": "465",
        "warehouseName": "Thomas Road",
        "latitude": 33.474,
        "longitude": -111.985,
        "address": "4502 E OAK ST",
        "city": "PHOENIX",
        "state": "AZ",
        "zipCode": "85008"
    },
    {
        "warehouseNumber": "407",
        "warehouseName": "Tucson",
        "latitude": 32.252,
        "longitude": -110.859,
        "address": "6255 EAST GRANT ROAD",
        "city": "TUCSON",
        "state": "AZ",
        "zipCode": "85712"
    },
    {
        "warehouseNumber": "1442",
        "warehouseName": "Little Rock",
        "latitude": 34.757,
        "longitude": -92.454,
        "address": "16901 CHENAL PARKWAY",
        "city": "LITTLE ROCK",
        "state": "AR",
        "zipCode": "72223"
    },
    {
        "warehouseNumber": "428",
        "warehouseName": "Alhambra",
        "latitude": 34.089,
        "longitude": -118.148,
        "address": "2207 W COMMONWEALTH AVE",
        "city": "ALHAMBRA",
        "state": "CA",
        "zipCode": "91803"
    },
    {
        "warehouseNumber": "470",
        "warehouseName": "Almaden",
        "latitude": 37.253,
        "longitude": -121.88,
        "address": "5301 ALMADEN EXPY",
        "city": "SAN JOSE",
        "state": "CA",
        "zipCode": "95118"
    },
    {
        "warehouseNumber": "1002",
        "warehouseName": "Antioch",
        "latitude": 38.009,
        "longitude": -121.836,
        "address": "2201 VERNE ROBERTS CIR",
        "city": "ANTIOCH",
        "state": "CA",
        "zipCode": "94509"
    },
    {
        "warehouseNumber": "412",
        "warehouseName": "Azusa",
        "latitude": 34.132,
        "longitude": -117.926,
        "address": "1220 W FOOTHILL BLVD",
        "city": "AZUSA",
        "state": "CA",
        "zipCode": "91702"
    },
    {
        "warehouseNumber": "688",
        "warehouseName": "Bakersfield",
        "latitude": 35.385,
        "longitude": -119.049,
        "address": "3800 ROSEDALE HWY",
        "city": "BAKERSFIELD",
        "state": "CA",
        "zipCode": "93308"
    },
    {
        "warehouseNumber": "677",
        "warehouseName": "Burbank",
        "latitude": 34.185,
        "longitude": -118.324,
        "address": "1051 W BURBANK BLVD",
        "city": "BURBANK",
        "state": "CA",
        "zipCode": "91506"
    },
    {
        "warehouseNumber": "653",
        "warehouseName": "Burbank Business Center",
        "latitude": 34.2,
        "longitude": -118.38,
        "address": "11428 SHERMAN WAY",
        "city": "NORTH HOLLYWOOD",
        "state": "CA",
        "zipCode": "91605"
    },
    {
        "warehouseNumber": "471",
        "warehouseName": "Cal Expo (Sacramento)",
        "latitude": 38.597,
        "longitude": -121.453,
        "address": "1600 EXPO PKWY",
        "city": "SACRAMENTO",
        "state": "CA",
        "zipCode": "95815"
    },
    {
        "warehouseNumber": "462",
        "warehouseName": "Carlsbad",
        "latitude": 33.12,
        "longitude": -117.316,
        "address": "951 PALOMAR AIRPORT RD",
        "city": "CARLSBAD",
        "state": "CA",
        "zipCode": "92011"
    },
    {
        "warehouseNumber": "452",
        "warehouseName": "Carmel Mountain",
        "latitude": 32.987,
        "longitude": -117.078,
        "address": "12350 CARMEL MOUNTAIN RD",
        "city": "SAN DIEGO",
        "state": "CA",
        "zipCode": "92128"
    },
    {
        "warehouseNumber": "1011",
        "warehouseName": "Chico",
        "latitude": 39.721,
        "longitude": -121.811,
        "address": "2100 DR MLK JR PKWY",
        "city": "CHICO",
        "state": "CA",
        "zipCode": "95928"
    },
    {
        "warehouseNumber": "473",
        "warehouseName": "Chino Hills",
        "latitude": 34.015,
        "longitude": -117.742,
        "address": "13111 PEYTON DR",
        "city": "CHINO HILLS",
        "state": "CA",
        "zipCode": "91709"
    },
    {
        "warehouseNumber": "781",
        "warehouseName": "Chula Vista",
        "latitude": 32.608,
        "longitude": -117.083,
        "address": "1130 BROADWAY",
        "city": "CHULA VISTA",
        "state": "CA",
        "zipCode": "91911"
    },
    {
        "warehouseNumber": "771",
        "warehouseName": "Citrus Heights",
        "latitude": 38.69,
        "longitude": -121.298,
        "address": "7000 AUBURN BLVD",
        "city": "CITRUS HEIGHTS",
        "state": "CA",
        "zipCode": "95621"
    },
    {
        "warehouseNumber": "679",
        "warehouseName": "City Of Industry",
        "latitude": 33.994,
        "longitude": -117.922,
        "address": "17550 CASTLETON ST",
        "city": "CITY OF INDUSTRY",
        "state": "CA",
        "zipCode": "91748"
    },
    {
        "warehouseNumber": "1360",
        "warehouseName": "Clovis",
        "latitude": 36.806,
        "longitude": -119.703,
        "address": "2270 CLOVIS AVE",
        "city": "CLOVIS",
        "state": "CA",
        "zipCode": "93612"
    },
    {
        "warehouseNumber": "569",
        "warehouseName": "Commerce Business Center",
        "latitude": 33.995,
        "longitude": -118.141,
        "address": "6333 TELEGRAPH RD",
        "city": "COMMERCE",
        "state": "CA",
        "zipCode": "90040"
    },
    {
        "warehouseNumber": "663",
        "warehouseName": "Concord",
        "latitude": 37.958,
        "longitude": -122.033,
        "address": "2400 MONUMENT BLVD",
        "city": "CONCORD",
        "state": "CA",
        "zipCode": "94520"
    },
    {
        "warehouseNumber": "432",
        "warehouseName": "Corona",
        "latitude": 33.886,
        "longitude": -117.524,
        "address": "480 N MCKINLEY ST",
        "city": "CORONA",
        "state": "CA",
        "zipCode": "92879"
    },
    {
        "warehouseNumber": "479",
        "warehouseName": "Culver City",
        "latitude": 33.993,
        "longitude": -118.446,
        "address": "13463 WASHINGTON BLVD",
        "city": "MARINA DEL REY",
        "state": "CA",
        "zipCode": "90292"
    },
    {
        "warehouseNumber": "748",
        "warehouseName": "Cypress CA",
        "latitude": 33.804,
        "longitude": -118.039,
        "address": "5401 KATELLA AVE",
        "city": "CYPRESS",
        "state": "CA",
        "zipCode": "90720"
    },
    {
        "warehouseNumber": "21",
        "warehouseName": "Danville",
        "latitude": 37.782,
        "longitude": -121.973,
        "address": "3150 FOSTORIA WAY",
        "city": "DANVILLE",
        "state": "CA",
        "zipCode": "94526"
    },
    {
        "warehouseNumber": "1317",
        "warehouseName": "Eastvale",
        "latitude": 33.997,
        "longitude": -117.556,
        "address": "5030 HAMNER AVE",
        "city": "EASTVALE",
        "state": "CA",
        "zipCode": "91752"
    },
    {
        "warehouseNumber": "475",
        "warehouseName": "El Camino",
        "latitude": 37.665,
        "longitude": -122.448,
        "address": "1600 EL CAMINO REAL",
        "city": "SOUTH SAN FRANCISCO",
        "state": "CA",
        "zipCode": "94080"
    },
    {
        "warehouseNumber": "121",
        "warehouseName": "El Centro",
        "latitude": 32.812,
        "longitude": -115.573,
        "address": "2030 N IMPERIAL AVE",
        "city": "EL CENTRO",
        "state": "CA",
        "zipCode": "92243"
    },
    {
        "warehouseNumber": "1274",
        "warehouseName": "Elk Grove",
        "latitude": 38.406,
        "longitude": -121.414,
        "address": "7400 ELK GROVE BLVD",
        "city": "ELK GROVE",
        "state": "CA",
        "zipCode": "95757"
    },
    {
        "warehouseNumber": "125",
        "warehouseName": "Eureka",
        "latitude": 40.792,
        "longitude": -124.182,
        "address": "1006 W WABASH AVE",
        "city": "EUREKA",
        "state": "CA",
        "zipCode": "95501"
    },
    {
        "warehouseNumber": "453",
        "warehouseName": "Fairfield",
        "latitude": 38.215,
        "longitude": -122.145,
        "address": "5101 BUSINESS CENTER DR",
        "city": "FAIRFIELD",
        "state": "CA",
        "zipCode": "94534"
    },
    {
        "warehouseNumber": "765",
        "warehouseName": "Folsom",
        "latitude": 38.645,
        "longitude": -121.11,
        "address": "1800 CAVITT DR",
        "city": "FOLSOM",
        "state": "CA",
        "zipCode": "95630"
    },
    {
        "warehouseNumber": "627",
        "warehouseName": "Fontana",
        "latitude": 34.138,
        "longitude": -117.443,
        "address": "16505 SIERRA LAKES PKWY",
        "city": "FONTANA",
        "state": "CA",
        "zipCode": "92336"
    },
    {
        "warehouseNumber": "147",
        "warehouseName": "Foster City",
        "latitude": 37.562,
        "longitude": -122.274,
        "address": "1001 METRO CENTER BLVD",
        "city": "FOSTER CITY",
        "state": "CA",
        "zipCode": "94404"
    },
    {
        "warehouseNumber": "411",
        "warehouseName": "Fountain Valley",
        "latitude": 33.703,
        "longitude": -117.932,
        "address": "17900 NEWHOPE ST",
        "city": "FOUNTAIN VALLEY",
        "state": "CA",
        "zipCode": "92708"
    },
    {
        "warehouseNumber": "778",
        "warehouseName": "Fremont",
        "latitude": 37.502,
        "longitude": -121.973,
        "address": "43621 PACIFIC COMMONS BLVD",
        "city": "FREMONT",
        "state": "CA",
        "zipCode": "94538"
    },
    {
        "warehouseNumber": "31",
        "warehouseName": "Fresno",
        "latitude": 36.81,
        "longitude": -119.874,
        "address": "4500 W SHAW AVE",
        "city": "FRESNO",
        "state": "CA",
        "zipCode": "93722"
    },
    {
        "warehouseNumber": "418",
        "warehouseName": "Fullerton",
        "latitude": 33.862,
        "longitude": -117.922,
        "address": "900 S HARBOR BLVD",
        "city": "FULLERTON",
        "state": "CA",
        "zipCode": "92832"
    },
    {
        "warehouseNumber": "126",
        "warehouseName": "Garden Grove",
        "latitude": 33.773,
        "longitude": -117.941,
        "address": "11000 GARDEN GROVE BLVD",
        "city": "GARDEN GROVE",
        "state": "CA",
        "zipCode": "92843"
    },
    {
        "warehouseNumber": "760",
        "warehouseName": "Gilroy",
        "latitude": 37.008,
        "longitude": -121.556,
        "address": "7251 CAMINO ARROYO",
        "city": "GILROY",
        "state": "CA",
        "zipCode": "95020"
    },
    {
        "warehouseNumber": "474",
        "warehouseName": "Goleta",
        "latitude": 34.428,
        "longitude": -119.874,
        "address": "7095 MARKET PLACE DR",
        "city": "GOLETA",
        "state": "CA",
        "zipCode": "93117"
    },
    {
        "warehouseNumber": "1267",
        "warehouseName": "Great Oaks",
        "latitude": 37.244,
        "longitude": -121.786,
        "address": "6898 RALEIGH ROAD",
        "city": "SAN JOSE",
        "state": "CA",
        "zipCode": "95119"
    },
    {
        "warehouseNumber": "1244",
        "warehouseName": "Hanford",
        "latitude": 36.326,
        "longitude": -119.607,
        "address": "2395 E LACEY BLVD",
        "city": "HANFORD",
        "state": "CA",
        "zipCode": "93230"
    },
    {
        "warehouseNumber": "671",
        "warehouseName": "Hawthorne",
        "latitude": 33.899,
        "longitude": -118.373,
        "address": "14501 HINDRY AVENUE",
        "city": "HAWTHORNE",
        "state": "CA",
        "zipCode": "90250"
    },
    {
        "warehouseNumber": "564",
        "warehouseName": "Hawthorne Business Center",
        "latitude": 33.919,
        "longitude": -118.343,
        "address": "12530 PRAIRIE AVE",
        "city": "HAWTHORNE",
        "state": "CA",
        "zipCode": "90250"
    },
    {
        "warehouseNumber": "1061",
        "warehouseName": "Hayward",
        "latitude": 37.615,
        "longitude": -122.09,
        "address": "28505 HESPERIAN BLVD",
        "city": "HAYWARD",
        "state": "CA",
        "zipCode": "94545"
    },
    {
        "warehouseNumber": "823",
        "warehouseName": "Hayward Business Center",
        "latitude": 37.668,
        "longitude": -122.103,
        "address": "22330 HATHAWAY AVE",
        "city": "HAYWARD",
        "state": "CA",
        "zipCode": "94541"
    },
    {
        "warehouseNumber": "1110",
        "warehouseName": "Huntington Beach",
        "latitude": 33.733,
        "longitude": -117.996,
        "address": "7562 CENTER AVE",
        "city": "HUNTINGTON BEACH",
        "state": "CA",
        "zipCode": "92647"
    },
    {
        "warehouseNumber": "769",
        "warehouseName": "Inglewood",
        "latitude": 33.943,
        "longitude": -118.334,
        "address": "3560 W CENTURY BLVD",
        "city": "INGLEWOOD",
        "state": "CA",
        "zipCode": "90303"
    },
    {
        "warehouseNumber": "454",
        "warehouseName": "Irvine",
        "latitude": 33.66,
        "longitude": -117.745,
        "address": "115 TECHNOLOGY DR",
        "city": "IRVINE",
        "state": "CA",
        "zipCode": "92618"
    },
    {
        "warehouseNumber": "777",
        "warehouseName": "La Habra",
        "latitude": 33.933,
        "longitude": -117.97,
        "address": "101 N BEACH BLVD",
        "city": "LA HABRA",
        "state": "CA",
        "zipCode": "90631"
    },
    {
        "warehouseNumber": "469",
        "warehouseName": "La Mesa",
        "latitude": 32.774,
        "longitude": -117.024,
        "address": "8125 FLETCHER PKWY",
        "city": "LA MESA",
        "state": "CA",
        "zipCode": "91942"
    },
    {
        "warehouseNumber": "638",
        "warehouseName": "La Quinta",
        "latitude": 33.705,
        "longitude": -116.273,
        "address": "79795 HIGHWAY 111",
        "city": "LA QUINTA",
        "state": "CA",
        "zipCode": "92253"
    },
    {
        "warehouseNumber": "690",
        "warehouseName": "Laguna Marketplace",
        "latitude": 33.567,
        "longitude": -117.711,
        "address": "27220 HEATHER RIDGE RD",
        "city": "LAGUNA NIGUEL",
        "state": "CA",
        "zipCode": "92677"
    },
    {
        "warehouseNumber": "28",
        "warehouseName": "Laguna Niguel",
        "latitude": 33.555,
        "longitude": -117.677,
        "address": "27972 CABOT RD",
        "city": "LAGUNA NIGUEL",
        "state": "CA",
        "zipCode": "92677"
    },
    {
        "warehouseNumber": "746",
        "warehouseName": "Lake Elsinore",
        "latitude": 33.696,
        "longitude": -117.339,
        "address": "29315 CENTRAL AVE",
        "city": "LAKE ELSINORE",
        "state": "CA",
        "zipCode": "92532"
    },
    {
        "warehouseNumber": "1050",
        "warehouseName": "Lakewood",
        "latitude": 33.85,
        "longitude": -118.137,
        "address": "340 LAKEWOOD CENTER MALL",
        "city": "LAKEWOOD",
        "state": "CA",
        "zipCode": "90712"
    },
    {
        "warehouseNumber": "762",
        "warehouseName": "Lancaster CA",
        "latitude": 34.661,
        "longitude": -118.151,
        "address": "1141 W AVENUE L",
        "city": "LANCASTER",
        "state": "CA",
        "zipCode": "93534"
    },
    {
        "warehouseNumber": "146",
        "warehouseName": "Livermore",
        "latitude": 37.703,
        "longitude": -121.812,
        "address": "2800 INDEPENDENCE DR",
        "city": "LIVERMORE",
        "state": "CA",
        "zipCode": "94551"
    },
    {
        "warehouseNumber": "1091",
        "warehouseName": "Lodi",
        "latitude": 38.1,
        "longitude": -121.264,
        "address": "2680 REYNOLDS RANCH PKWY",
        "city": "LODI",
        "state": "CA",
        "zipCode": "95240"
    },
    {
        "warehouseNumber": "1371",
        "warehouseName": "Loomis",
        "latitude": 38.809,
        "longitude": -121.205,
        "address": "4101 SIERRA COLLEGE BLVD",
        "city": "LOOMIS",
        "state": "CA",
        "zipCode": "95650"
    },
    {
        "warehouseNumber": "130",
        "warehouseName": "Los Feliz",
        "latitude": 34.128,
        "longitude": -118.264,
        "address": "2901 LOS FELIZ BLVD",
        "city": "LOS ANGELES",
        "state": "CA",
        "zipCode": "90039"
    },
    {
        "warehouseNumber": "1031",
        "warehouseName": "Manteca",
        "latitude": 37.785,
        "longitude": -121.26,
        "address": "2440 DANIELS ST",
        "city": "MANTECA",
        "state": "CA",
        "zipCode": "95337"
    },
    {
        "warehouseNumber": "1658",
        "warehouseName": "Marysville CA",
        "latitude": 39.125,
        "longitude": -121.571,
        "address": "1214 N BEALE RD",
        "city": "LINDA",
        "state": "CA",
        "zipCode": "95901"
    },
    {
        "warehouseNumber": "142",
        "warehouseName": "Merced",
        "latitude": 37.303,
        "longitude": -120.497,
        "address": "1445 R ST",
        "city": "MERCED",
        "state": "CA",
        "zipCode": "95340"
    },
    {
        "warehouseNumber": "488",
        "warehouseName": "Mission Valley",
        "latitude": 32.782,
        "longitude": -117.129,
        "address": "2345 FENTON PKWY",
        "city": "SAN DIEGO",
        "state": "CA",
        "zipCode": "92108"
    },
    {
        "warehouseNumber": "661",
        "warehouseName": "Modesto",
        "latitude": 37.702,
        "longitude": -121.067,
        "address": "3801 PELANDALE AVE",
        "city": "MODESTO",
        "state": "CA",
        "zipCode": "95356"
    },
    {
        "warehouseNumber": "686",
        "warehouseName": "Montclair",
        "latitude": 34.083,
        "longitude": -117.69,
        "address": "9404 CENTRAL AVE",
        "city": "MONTCLAIR",
        "state": "CA",
        "zipCode": "91763"
    },
    {
        "warehouseNumber": "1318",
        "warehouseName": "Monterey Park",
        "latitude": 34.037,
        "longitude": -118.104,
        "address": "2000 MARKET PLACE DR",
        "city": "MONTEREY PARK",
        "state": "CA",
        "zipCode": "91755"
    },
    {
        "warehouseNumber": "401",
        "warehouseName": "Morena",
        "latitude": 32.822,
        "longitude": -117.225,
        "address": "4605 MORENA BLVD",
        "city": "SAN DIEGO",
        "state": "CA",
        "zipCode": "92117"
    },
    {
        "warehouseNumber": "455",
        "warehouseName": "Moreno Valley",
        "latitude": 33.935,
        "longitude": -117.276,
        "address": "12700 DAY ST",
        "city": "MORENO VALLEY",
        "state": "CA",
        "zipCode": "92553"
    },
    {
        "warehouseNumber": "143",
        "warehouseName": "Mountain View",
        "latitude": 37.421,
        "longitude": -122.095,
        "address": "1000 N RENGSTORFF AVE",
        "city": "MOUNTAIN VIEW",
        "state": "CA",
        "zipCode": "94043"
    },
    {
        "warehouseNumber": "1390",
        "warehouseName": "Murrieta",
        "latitude": 33.6,
        "longitude": -117.171,
        "address": "35875 WARM SPRINGS PARKWAY",
        "city": "MURRIETA",
        "state": "CA",
        "zipCode": "92563"
    },
    {
        "warehouseNumber": "657",
        "warehouseName": "N Fresno",
        "latitude": 36.839,
        "longitude": -119.788,
        "address": "7100 N ABBY ST",
        "city": "FRESNO",
        "state": "CA",
        "zipCode": "93720"
    },
    {
        "warehouseNumber": "1004",
        "warehouseName": "NE San Jose",
        "latitude": 37.39,
        "longitude": -121.884,
        "address": "1709 AUTOMATION PKWY",
        "city": "SAN JOSE",
        "state": "CA",
        "zipCode": "95131"
    },
    {
        "warehouseNumber": "1679",
        "warehouseName": "Napa",
        "latitude": 38.252,
        "longitude": -122.279,
        "address": "280 RIVERSOUND WAY",
        "city": "NAPA",
        "state": "CA",
        "zipCode": "94558"
    },
    {
        "warehouseNumber": "1674",
        "warehouseName": "Natomas",
        "latitude": 38.64,
        "longitude": -121.522,
        "address": "3881 E COMMERCE WAY",
        "city": "SACRAMENTO",
        "state": "CA",
        "zipCode": "95834"
    },
    {
        "warehouseNumber": "1660",
        "warehouseName": "Newark",
        "latitude": 37.526,
        "longitude": -121.999,
        "address": "350 NEWPARK MALL",
        "city": "NEWARK",
        "state": "CA",
        "zipCode": "94560"
    },
    {
        "warehouseNumber": "437",
        "warehouseName": "Northridge",
        "latitude": 34.23,
        "longitude": -118.551,
        "address": "8810 TAMPA AVE",
        "city": "NORTHRIDGE",
        "state": "CA",
        "zipCode": "91324"
    },
    {
        "warehouseNumber": "410",
        "warehouseName": "Norwalk CA",
        "latitude": 33.92,
        "longitude": -118.103,
        "address": "12324 HOXIE AVE",
        "city": "NORWALK",
        "state": "CA",
        "zipCode": "90650"
    },
    {
        "warehouseNumber": "141",
        "warehouseName": "Novato",
        "latitude": 38.087,
        "longitude": -122.551,
        "address": "300 VINTAGE WAY",
        "city": "NOVATO",
        "state": "CA",
        "zipCode": "94945"
    },
    {
        "warehouseNumber": "947",
        "warehouseName": "Ontario Business Center",
        "latitude": 34.064,
        "longitude": -117.573,
        "address": "3680 E GUASTI RD",
        "city": "ONTARIO",
        "state": "CA",
        "zipCode": "91761"
    },
    {
        "warehouseNumber": "420",
        "warehouseName": "Oxnard",
        "latitude": 34.225,
        "longitude": -119.148,
        "address": "2001 E VENTURA BLVD",
        "city": "OXNARD",
        "state": "CA",
        "zipCode": "93036"
    },
    {
        "warehouseNumber": "1071",
        "warehouseName": "Pacoima",
        "latitude": 34.272,
        "longitude": -118.426,
        "address": "13550 PAXTON ST",
        "city": "PACOIMA",
        "state": "CA",
        "zipCode": "91331"
    },
    {
        "warehouseNumber": "441",
        "warehouseName": "Palm Desert",
        "latitude": 33.804,
        "longitude": -116.39,
        "address": "72800 DINAH SHORE DR",
        "city": "PALM DESERT",
        "state": "CA",
        "zipCode": "92211"
    },
    {
        "warehouseNumber": "775",
        "warehouseName": "Poway",
        "latitude": 32.937,
        "longitude": -117.033,
        "address": "12155 TECH CENTER DR",
        "city": "POWAY",
        "state": "CA",
        "zipCode": "92064"
    },
    {
        "warehouseNumber": "438",
        "warehouseName": "Rancho Cordova",
        "latitude": 38.588,
        "longitude": -121.264,
        "address": "11260 WHITE ROCK RD",
        "city": "RANCHO CORDOVA",
        "state": "CA",
        "zipCode": "95742"
    },
    {
        "warehouseNumber": "678",
        "warehouseName": "Rancho Cucamonga",
        "latitude": 34.078,
        "longitude": -117.547,
        "address": "11800 4TH ST",
        "city": "RANCHO CUCAMONGA",
        "state": "CA",
        "zipCode": "91730"
    },
    {
        "warehouseNumber": "460",
        "warehouseName": "Rancho Del Rey",
        "latitude": 32.638,
        "longitude": -117.023,
        "address": "895 E H ST",
        "city": "CHULA VISTA",
        "state": "CA",
        "zipCode": "91910"
    },
    {
        "warehouseNumber": "1445",
        "warehouseName": "Redding",
        "latitude": 40.541,
        "longitude": -122.356,
        "address": "4805 BECHELLI LANE",
        "city": "REDDING",
        "state": "CA",
        "zipCode": "96002"
    },
    {
        "warehouseNumber": "1042",
        "warehouseName": "Redwood City",
        "latitude": 37.479,
        "longitude": -122.216,
        "address": "2300 MIDDLEFIELD RD",
        "city": "REDWOOD CITY",
        "state": "CA",
        "zipCode": "94063"
    },
    {
        "warehouseNumber": "482",
        "warehouseName": "Richmond CA",
        "latitude": 37.898,
        "longitude": -122.321,
        "address": "4801 CENTRAL AVENUE",
        "city": "RICHMOND",
        "state": "CA",
        "zipCode": "94804"
    },
    {
        "warehouseNumber": "1683",
        "warehouseName": "Riverbank",
        "latitude": 37.711,
        "longitude": -120.969,
        "address": "2015 CLARIBEL ROAD",
        "city": "RIVERBANK",
        "state": "CA",
        "zipCode": "95367"
    },
    {
        "warehouseNumber": "659",
        "warehouseName": "Rohnert Park",
        "latitude": 38.353,
        "longitude": -122.717,
        "address": "5901 REDWOOD DR",
        "city": "ROHNERT PARK",
        "state": "CA",
        "zipCode": "94928"
    },
    {
        "warehouseNumber": "29",
        "warehouseName": "Roseville CA",
        "latitude": 38.78,
        "longitude": -121.267,
        "address": "6750 STANFORD RANCH RD",
        "city": "ROSEVILLE",
        "state": "CA",
        "zipCode": "95678"
    },
    {
        "warehouseNumber": "422",
        "warehouseName": "S San Francisco",
        "latitude": 37.642,
        "longitude": -122.401,
        "address": "451 S AIRPORT BLVD",
        "city": "SOUTH SAN FRANCISCO",
        "state": "CA",
        "zipCode": "94080"
    },
    {
        "warehouseNumber": "654",
        "warehouseName": "S San Francisco Business Center",
        "latitude": 37.661,
        "longitude": -122.401,
        "address": "900 DUBUQUE AVE",
        "city": "SOUTH SAN FRANCISCO",
        "state": "CA",
        "zipCode": "94080"
    },
    {
        "warehouseNumber": "483",
        "warehouseName": "SE San Diego",
        "latitude": 32.713,
        "longitude": -117.116,
        "address": "650 GATEWAY CENTER DR",
        "city": "SAN DIEGO",
        "state": "CA",
        "zipCode": "92102"
    },
    {
        "warehouseNumber": "643",
        "warehouseName": "SW Bakersfield",
        "latitude": 35.297,
        "longitude": -119.058,
        "address": "4900 PANAMA LN",
        "city": "BAKERSFIELD",
        "state": "CA",
        "zipCode": "93313"
    },
    {
        "warehouseNumber": "464",
        "warehouseName": "Sacramento",
        "latitude": 38.468,
        "longitude": -121.414,
        "address": "7981 E STOCKTON BLVD",
        "city": "SACRAMENTO",
        "state": "CA",
        "zipCode": "95823"
    },
    {
        "warehouseNumber": "893",
        "warehouseName": "Sacramento Business Center",
        "latitude": 38.608,
        "longitude": -121.386,
        "address": "3360 EL CAMINO AVE",
        "city": "SACRAMENTO",
        "state": "CA",
        "zipCode": "95821"
    },
    {
        "warehouseNumber": "472",
        "warehouseName": "Salinas",
        "latitude": 36.704,
        "longitude": -121.668,
        "address": "1339 N DAVIS RD",
        "city": "SALINAS",
        "state": "CA",
        "zipCode": "93907"
    },
    {
        "warehouseNumber": "478",
        "warehouseName": "San Bernardino",
        "latitude": 34.068,
        "longitude": -117.263,
        "address": "1099 E HOSPITALITY LN",
        "city": "SAN BERNARDINO",
        "state": "CA",
        "zipCode": "92408"
    },
    {
        "warehouseNumber": "578",
        "warehouseName": "San Diego Business Center",
        "latitude": 32.816,
        "longitude": -117.153,
        "address": "7803 OTHELLO AVE",
        "city": "SAN DIEGO",
        "state": "CA",
        "zipCode": "92111"
    },
    {
        "warehouseNumber": "1015",
        "warehouseName": "San Dimas",
        "latitude": 34.112,
        "longitude": -117.827,
        "address": "520 N LONE HILL AVE",
        "city": "SAN DIMAS",
        "state": "CA",
        "zipCode": "91773"
    },
    {
        "warehouseNumber": "144",
        "warehouseName": "San Francisco",
        "latitude": 37.771,
        "longitude": -122.411,
        "address": "450 10TH ST",
        "city": "SAN FRANCISCO",
        "state": "CA",
        "zipCode": "94103"
    },
    {
        "warehouseNumber": "148",
        "warehouseName": "San Jose",
        "latitude": 37.31,
        "longitude": -121.851,
        "address": "2201 SENTER RD",
        "city": "SAN JOSE",
        "state": "CA",
        "zipCode": "95112"
    },
    {
        "warehouseNumber": "848",
        "warehouseName": "San Jose Business Center",
        "latitude": 37.318,
        "longitude": -121.811,
        "address": "2376 S EVERGREEN LOOP",
        "city": "SAN JOSE",
        "state": "CA",
        "zipCode": "95122"
    },
    {
        "warehouseNumber": "429",
        "warehouseName": "San Juan Capistrano",
        "latitude": 33.47,
        "longitude": -117.678,
        "address": "33961 DOHENY PARK RD",
        "city": "SAN JUAN CAPISTRANO",
        "state": "CA",
        "zipCode": "92675"
    },
    {
        "warehouseNumber": "118",
        "warehouseName": "San Leandro",
        "latitude": 37.72,
        "longitude": -122.182,
        "address": "1900 DAVIS ST",
        "city": "SAN LEANDRO",
        "state": "CA",
        "zipCode": "94577"
    },
    {
        "warehouseNumber": "741",
        "warehouseName": "San Luis Obispo",
        "latitude": 35.252,
        "longitude": -120.691,
        "address": "1540 FROOM RANCH WAY",
        "city": "SAN LUIS OBISPO",
        "state": "CA",
        "zipCode": "93405"
    },
    {
        "warehouseNumber": "1080",
        "warehouseName": "San Marcos",
        "latitude": 33.135,
        "longitude": -117.125,
        "address": "725 CENTER DRIVE",
        "city": "SAN MARCOS",
        "state": "CA",
        "zipCode": "92069"
    },
    {
        "warehouseNumber": "1581",
        "warehouseName": "San Marcos Business Center",
        "latitude": 33.137,
        "longitude": -117.184,
        "address": "150 S. BENT AVE",
        "city": "SAN MARCOS",
        "state": "CA",
        "zipCode": "92078"
    },
    {
        "warehouseNumber": "131",
        "warehouseName": "Sand City",
        "latitude": 36.617,
        "longitude": -121.845,
        "address": "801 TIOGA AVE",
        "city": "SAND CITY",
        "state": "CA",
        "zipCode": "93955"
    },
    {
        "warehouseNumber": "129",
        "warehouseName": "Santa Clara",
        "latitude": 37.357,
        "longitude": -121.939,
        "address": "1601 COLEMAN AVE",
        "city": "SANTA CLARA",
        "state": "CA",
        "zipCode": "95050"
    },
    {
        "warehouseNumber": "447",
        "warehouseName": "Santa Clarita",
        "latitude": 34.404,
        "longitude": -118.461,
        "address": "18649 VIA PRINCESSA",
        "city": "SANTA CLARITA",
        "state": "CA",
        "zipCode": "91387"
    },
    {
        "warehouseNumber": "149",
        "warehouseName": "Santa Cruz",
        "latitude": 36.985,
        "longitude": -122.033,
        "address": "220 SYLVANIA AVE",
        "city": "SANTA CRUZ",
        "state": "CA",
        "zipCode": "95060"
    },
    {
        "warehouseNumber": "1275",
        "warehouseName": "Santa Maria",
        "latitude": 34.927,
        "longitude": -120.419,
        "address": "1700 S. BRADLEY RD.",
        "city": "SANTA MARIA",
        "state": "CA",
        "zipCode": "93454"
    },
    {
        "warehouseNumber": "41",
        "warehouseName": "Santa Rosa",
        "latitude": 38.42,
        "longitude": -122.712,
        "address": "1900 SANTA ROSA AVE",
        "city": "SANTA ROSA",
        "state": "CA",
        "zipCode": "95407"
    },
    {
        "warehouseNumber": "403",
        "warehouseName": "Santee",
        "latitude": 32.841,
        "longitude": -116.988,
        "address": "101 TOWN CENTER PKWY",
        "city": "SANTEE",
        "state": "CA",
        "zipCode": "92071"
    },
    {
        "warehouseNumber": "424",
        "warehouseName": "Signal Hill",
        "latitude": 33.803,
        "longitude": -118.165,
        "address": "2200 E WILLOW ST",
        "city": "SIGNAL HILL",
        "state": "CA",
        "zipCode": "90755"
    },
    {
        "warehouseNumber": "128",
        "warehouseName": "Simi Valley",
        "latitude": 34.284,
        "longitude": -118.796,
        "address": "2660 PARK CENTER DR",
        "city": "SIMI VALLEY",
        "state": "CA",
        "zipCode": "93065"
    },
    {
        "warehouseNumber": "38",
        "warehouseName": "Stockton",
        "latitude": 38.019,
        "longitude": -121.292,
        "address": "1616 E HAMMER LN",
        "city": "STOCKTON",
        "state": "CA",
        "zipCode": "95210"
    },
    {
        "warehouseNumber": "423",
        "warehouseName": "Sunnyvale",
        "latitude": 37.372,
        "longitude": -121.995,
        "address": "150 LAWRENCE STATION RD",
        "city": "SUNNYVALE",
        "state": "CA",
        "zipCode": "94086"
    },
    {
        "warehouseNumber": "491",
        "warehouseName": "Temecula",
        "latitude": 33.521,
        "longitude": -117.155,
        "address": "26610 YNEZ RD",
        "city": "TEMECULA",
        "state": "CA",
        "zipCode": "92591"
    },
    {
        "warehouseNumber": "1202",
        "warehouseName": "Torrance",
        "latitude": 33.807,
        "longitude": -118.334,
        "address": "2640 LOMITA BLVD",
        "city": "TORRANCE",
        "state": "CA",
        "zipCode": "90505"
    },
    {
        "warehouseNumber": "658",
        "warehouseName": "Tracy",
        "latitude": 37.751,
        "longitude": -121.475,
        "address": "3250 W GRANT LINE RD",
        "city": "TRACY",
        "state": "CA",
        "zipCode": "95304"
    },
    {
        "warehouseNumber": "782",
        "warehouseName": "Turlock",
        "latitude": 37.519,
        "longitude": -120.888,
        "address": "2955 N TEGNER RD",
        "city": "TURLOCK",
        "state": "CA",
        "zipCode": "95380"
    },
    {
        "warehouseNumber": "1001",
        "warehouseName": "Tustin",
        "latitude": 33.699,
        "longitude": -117.823,
        "address": "2700 PARK AVE",
        "city": "TUSTIN",
        "state": "CA",
        "zipCode": "92782"
    },
    {
        "warehouseNumber": "122",
        "warehouseName": "Tustin Ranch",
        "latitude": 33.728,
        "longitude": -117.796,
        "address": "2655 EL CAMINO REAL",
        "city": "TUSTIN",
        "state": "CA",
        "zipCode": "92782"
    },
    {
        "warehouseNumber": "1297",
        "warehouseName": "Ukiah",
        "latitude": 39.127,
        "longitude": -123.197,
        "address": "1275 AIRPORT PARK BLVD",
        "city": "UKIAH",
        "state": "CA",
        "zipCode": "95482"
    },
    {
        "warehouseNumber": "694",
        "warehouseName": "Vacaville",
        "latitude": 38.351,
        "longitude": -121.98,
        "address": "1051 HUME WAY",
        "city": "VACAVILLE",
        "state": "CA",
        "zipCode": "95687"
    },
    {
        "warehouseNumber": "132",
        "warehouseName": "Vallejo",
        "latitude": 38.133,
        "longitude": -122.214,
        "address": "198 PLAZA DR",
        "city": "VALLEJO",
        "state": "CA",
        "zipCode": "94591"
    },
    {
        "warehouseNumber": "48",
        "warehouseName": "Van Nuys",
        "latitude": 34.182,
        "longitude": -118.464,
        "address": "6100 SEPULVEDA BLVD",
        "city": "VAN NUYS",
        "state": "CA",
        "zipCode": "91411"
    },
    {
        "warehouseNumber": "1010",
        "warehouseName": "Victorville",
        "latitude": 34.515,
        "longitude": -117.318,
        "address": "14555 VALLEY CENTER DR",
        "city": "VICTORVILLE",
        "state": "CA",
        "zipCode": "92395"
    },
    {
        "warehouseNumber": "1017",
        "warehouseName": "Visalia",
        "latitude": 36.293,
        "longitude": -119.307,
        "address": "1405 W CAMERON AVE",
        "city": "VISALIA",
        "state": "CA",
        "zipCode": "93277"
    },
    {
        "warehouseNumber": "124",
        "warehouseName": "Vista",
        "latitude": 33.188,
        "longitude": -117.277,
        "address": "1755 HACIENDA DR",
        "city": "VISTA",
        "state": "CA",
        "zipCode": "92081"
    },
    {
        "warehouseNumber": "117",
        "warehouseName": "Westlake Village",
        "latitude": 34.152,
        "longitude": -118.797,
        "address": "5700 LINDERO CANYON RD",
        "city": "WESTLAKE VILLAGE",
        "state": "CA",
        "zipCode": "91362"
    },
    {
        "warehouseNumber": "943",
        "warehouseName": "Westminster Business Center",
        "latitude": 33.769,
        "longitude": -117.993,
        "address": "13225 BEACH BLVD",
        "city": "WESTMINSTER",
        "state": "CA",
        "zipCode": "92683"
    },
    {
        "warehouseNumber": "1003",
        "warehouseName": "Woodland",
        "latitude": 38.672,
        "longitude": -121.723,
        "address": "2299 BRONZE STAR DR",
        "city": "WOODLAND",
        "state": "CA",
        "zipCode": "95776"
    },
    {
        "warehouseNumber": "1205",
        "warehouseName": "Woodland Hills",
        "latitude": 34.186,
        "longitude": -118.603,
        "address": "21800 VICTORY BLVD",
        "city": "WOODLAND HILLS",
        "state": "CA",
        "zipCode": "91367"
    },
    {
        "warehouseNumber": "445",
        "warehouseName": "Yorba Linda",
        "latitude": 33.875,
        "longitude": -117.744,
        "address": "22633 SAVI RANCH PKWY",
        "city": "YORBA LINDA",
        "state": "CA",
        "zipCode": "92887"
    },
    {
        "warehouseNumber": "676",
        "warehouseName": "Arvada",
        "latitude": 39.789,
        "longitude": -105.083,
        "address": "5195 WADSWORTH BLVD",
        "city": "ARVADA",
        "state": "CO",
        "zipCode": "80002"
    },
    {
        "warehouseNumber": "439",
        "warehouseName": "Aurora",
        "latitude": 39.69,
        "longitude": -104.868,
        "address": "1471 S HAVANA ST",
        "city": "AURORA",
        "state": "CO",
        "zipCode": "80012"
    },
    {
        "warehouseNumber": "650",
        "warehouseName": "Denver Business Center",
        "latitude": 39.709,
        "longitude": -105.014,
        "address": "400 S ZUNI ST",
        "city": "DENVER",
        "state": "CO",
        "zipCode": "80223"
    },
    {
        "warehouseNumber": "468",
        "warehouseName": "Douglas County",
        "latitude": 39.558,
        "longitude": -104.877,
        "address": "8686 PARK MEADOWS CENTER DR",
        "city": "LITTLETON",
        "state": "CO",
        "zipCode": "80124"
    },
    {
        "warehouseNumber": "1014",
        "warehouseName": "E Colorado Springs",
        "latitude": 38.892,
        "longitude": -104.717,
        "address": "5885 BARNES RD",
        "city": "COLORADO SPRINGS",
        "state": "CO",
        "zipCode": "80922"
    },
    {
        "warehouseNumber": "637",
        "warehouseName": "Gypsum",
        "latitude": 39.645,
        "longitude": -106.891,
        "address": "170 COOLEY MESA RD",
        "city": "GYPSUM",
        "state": "CO",
        "zipCode": "81637"
    },
    {
        "warehouseNumber": "1628",
        "warehouseName": "Longmont",
        "latitude": 40.152,
        "longitude": -105.085,
        "address": "205 EAST KEN PRATT BLVD",
        "city": "LONGMONT",
        "state": "CO",
        "zipCode": "80501"
    },
    {
        "warehouseNumber": "1652",
        "warehouseName": "NE Denver",
        "latitude": 39.781,
        "longitude": -104.796,
        "address": "4741 N AIRPORT WAY",
        "city": "DENVER",
        "state": "CO",
        "zipCode": "80239"
    },
    {
        "warehouseNumber": "1022",
        "warehouseName": "Parker",
        "latitude": 39.556,
        "longitude": -104.775,
        "address": "18414 COTTONWOOD DR",
        "city": "PARKER",
        "state": "CO",
        "zipCode": "80138"
    },
    {
        "warehouseNumber": "443",
        "warehouseName": "SW Denver",
        "latitude": 39.637,
        "longitude": -105.086,
        "address": "7900 W QUINCY AVE",
        "city": "LITTLETON",
        "state": "CO",
        "zipCode": "80123"
    },
    {
        "warehouseNumber": "1027",
        "warehouseName": "Sheridan",
        "latitude": 39.644,
        "longitude": -105.007,
        "address": "4000 RIVER POINT PKWY",
        "city": "SHERIDAN",
        "state": "CO",
        "zipCode": "80110"
    },
    {
        "warehouseNumber": "480",
        "warehouseName": "Superior",
        "latitude": 39.959,
        "longitude": -105.174,
        "address": "600 MARSHALL RD",
        "city": "SUPERIOR",
        "state": "CO",
        "zipCode": "80027"
    },
    {
        "warehouseNumber": "629",
        "warehouseName": "Thornton",
        "latitude": 39.991,
        "longitude": -104.983,
        "address": "16375 N. WASHINGTON ST",
        "city": "THORNTON",
        "state": "CO",
        "zipCode": "80023"
    },
    {
        "warehouseNumber": "1178",
        "warehouseName": "Timnath",
        "latitude": 40.521,
        "longitude": -104.99,
        "address": "4705 WEITZEL ST",
        "city": "TIMNATH",
        "state": "CO",
        "zipCode": "80547"
    },
    {
        "warehouseNumber": "1030",
        "warehouseName": "W Colorado Springs",
        "latitude": 38.905,
        "longitude": -104.821,
        "address": "5050 N NEVADA AVE",
        "city": "COLORADO SPRINGS",
        "state": "CO",
        "zipCode": "80918"
    },
    {
        "warehouseNumber": "440",
        "warehouseName": "Westminster CO",
        "latitude": 39.862,
        "longitude": -105.066,
        "address": "6400 W 92ND AVE",
        "city": "WESTMINSTER",
        "state": "CO",
        "zipCode": "80031"
    },
    {
        "warehouseNumber": "304",
        "warehouseName": "Brookfield",
        "latitude": 41.442,
        "longitude": -73.406,
        "address": "200 FEDERAL RD",
        "city": "BROOKFIELD",
        "state": "CT",
        "zipCode": "06804"
    },
    {
        "warehouseNumber": "1372",
        "warehouseName": "E Lyme",
        "latitude": 41.36,
        "longitude": -72.214,
        "address": "284 FLANDERS RD",
        "city": "EAST LYME",
        "state": "CT",
        "zipCode": "06333"
    },
    {
        "warehouseNumber": "780",
        "warehouseName": "Enfield",
        "latitude": 41.993,
        "longitude": -72.576,
        "address": "75 FRESHWATER BLVD",
        "city": "ENFIELD",
        "state": "CT",
        "zipCode": "06082"
    },
    {
        "warehouseNumber": "312",
        "warehouseName": "Milford",
        "latitude": 41.251,
        "longitude": -73.025,
        "address": "1718 BOSTON POST RD",
        "city": "MILFORD",
        "state": "CT",
        "zipCode": "06460"
    },
    {
        "warehouseNumber": "1196",
        "warehouseName": "New Britain",
        "latitude": 41.71,
        "longitude": -72.763,
        "address": "405 HARTFORD RD",
        "city": "NEW BRITAIN",
        "state": "CT",
        "zipCode": "06053"
    },
    {
        "warehouseNumber": "324",
        "warehouseName": "Norwalk CT",
        "latitude": 41.092,
        "longitude": -73.452,
        "address": "779 CONNECTICUT AVENUE",
        "city": "NORWALK",
        "state": "CT",
        "zipCode": "06854"
    },
    {
        "warehouseNumber": "1493",
        "warehouseName": "South Windsor",
        "latitude": 41.818,
        "longitude": -72.556,
        "address": "1220 TAMARACK AVE",
        "city": "SOUTH WINDSOR",
        "state": "CT",
        "zipCode": "06074"
    },
    {
        "warehouseNumber": "313",
        "warehouseName": "Waterbury",
        "latitude": 41.54,
        "longitude": -72.968,
        "address": "3600 E MAIN ST",
        "city": "WATERBURY",
        "state": "CT",
        "zipCode": "06705"
    },
    {
        "warehouseNumber": "246",
        "warehouseName": "Christiana",
        "latitude": 39.677,
        "longitude": -75.648,
        "address": "900 CENTER BLVD",
        "city": "NEWARK",
        "state": "DE",
        "zipCode": "19702"
    },
    {
        "warehouseNumber": "1120",
        "warehouseName": "Washington DC",
        "latitude": 38.921,
        "longitude": -76.951,
        "address": "2441 MARKET ST NE",
        "city": "WASHINGTON",
        "state": "DC",
        "zipCode": "20018"
    },
    {
        "warehouseNumber": "183",
        "warehouseName": "Altamonte Springs",
        "latitude": 28.661,
        "longitude": -81.418,
        "address": "741 ORANGE AVE",
        "city": "ALTAMONTE SPRINGS",
        "state": "FL",
        "zipCode": "32714"
    },
    {
        "warehouseNumber": "345",
        "warehouseName": "Boca Raton",
        "latitude": 26.412,
        "longitude": -80.101,
        "address": "17800 CONGRESS AVE",
        "city": "BOCA RATON",
        "state": "FL",
        "zipCode": "33487"
    },
    {
        "warehouseNumber": "1364",
        "warehouseName": "Bradenton",
        "latitude": 27.495,
        "longitude": -82.47,
        "address": "805 LIGHTHOUSE DRIVE",
        "city": "BRADENTON",
        "state": "FL",
        "zipCode": "34212"
    },
    {
        "warehouseNumber": "358",
        "warehouseName": "Brandon",
        "latitude": 27.921,
        "longitude": -82.331,
        "address": "10921 CAUSEWAY BLVD",
        "city": "BRANDON",
        "state": "FL",
        "zipCode": "33511"
    },
    {
        "warehouseNumber": "336",
        "warehouseName": "Clearwater",
        "latitude": 27.957,
        "longitude": -82.728,
        "address": "2655 GULF TO BAY BLVD",
        "city": "CLEARWATER",
        "state": "FL",
        "zipCode": "33759"
    },
    {
        "warehouseNumber": "1649",
        "warehouseName": "Clermont",
        "latitude": 28.548,
        "longitude": -81.667,
        "address": "4600 COLLINA TERRACE",
        "city": "CLERMONT",
        "state": "FL",
        "zipCode": "34711"
    },
    {
        "warehouseNumber": "1323",
        "warehouseName": "Coral Springs",
        "latitude": 26.289,
        "longitude": -80.28,
        "address": "4621 CORAL RIDGE DR.",
        "city": "CORAL SPRINGS",
        "state": "FL",
        "zipCode": "33076"
    },
    {
        "warehouseNumber": "91",
        "warehouseName": "Davie",
        "latitude": 26.097,
        "longitude": -80.248,
        "address": "1890 S UNIVERSITY DR",
        "city": "DAVIE",
        "state": "FL",
        "zipCode": "33324"
    },
    {
        "warehouseNumber": "1681",
        "warehouseName": "Daytona",
        "latitude": 29.191,
        "longitude": -81.072,
        "address": "150 PIT ROAD",
        "city": "DAYTONA BEACH",
        "state": "FL",
        "zipCode": "32114"
    },
    {
        "warehouseNumber": "357",
        "warehouseName": "E Jacksonville",
        "latitude": 30.252,
        "longitude": -81.534,
        "address": "4901 GATE PKWY",
        "city": "JACKSONVILLE",
        "state": "FL",
        "zipCode": "32246"
    },
    {
        "warehouseNumber": "185",
        "warehouseName": "E Orlando",
        "latitude": 28.599,
        "longitude": -81.3,
        "address": "3333 UNIVERSITY BLVD",
        "city": "WINTER PARK",
        "state": "FL",
        "zipCode": "32792"
    },
    {
        "warehouseNumber": "621",
        "warehouseName": "Estero",
        "latitude": 26.49,
        "longitude": -81.786,
        "address": "10088 GULF CENTER DR",
        "city": "FORT MYERS",
        "state": "FL",
        "zipCode": "33913"
    },
    {
        "warehouseNumber": "351",
        "warehouseName": "Fort Myers",
        "latitude": 26.545,
        "longitude": -81.874,
        "address": "7171 CYPRESS LAKE DR",
        "city": "FORT MYERS",
        "state": "FL",
        "zipCode": "33907"
    },
    {
        "warehouseNumber": "1023",
        "warehouseName": "Kendall",
        "latitude": 25.654,
        "longitude": -80.413,
        "address": "13450 SW 120TH ST",
        "city": "MIAMI",
        "state": "FL",
        "zipCode": "33186"
    },
    {
        "warehouseNumber": "180",
        "warehouseName": "Lantana",
        "latitude": 26.589,
        "longitude": -80.071,
        "address": "1873 LANTANA RD",
        "city": "LANTANA",
        "state": "FL",
        "zipCode": "33462"
    },
    {
        "warehouseNumber": "1450",
        "warehouseName": "Melbourne",
        "latitude": 28.189,
        "longitude": -80.72,
        "address": "4305 PINEDA CAUSEWAY",
        "city": "MELBOURNE",
        "state": "FL",
        "zipCode": "32940"
    },
    {
        "warehouseNumber": "1229",
        "warehouseName": "Miami",
        "latitude": 25.775,
        "longitude": -80.322,
        "address": "7795 WEST FLAGLER STREET",
        "city": "MIAMI",
        "state": "FL",
        "zipCode": "33144"
    },
    {
        "warehouseNumber": "181",
        "warehouseName": "Miami Lakes",
        "latitude": 25.923,
        "longitude": -80.299,
        "address": "16580 NW 59TH AVE",
        "city": "MIAMI LAKES",
        "state": "FL",
        "zipCode": "33014"
    },
    {
        "warehouseNumber": "1332",
        "warehouseName": "N Miami",
        "latitude": 25.912,
        "longitude": -80.154,
        "address": "14800 SOLE MIA WAY",
        "city": "NORTH MIAMI",
        "state": "FL",
        "zipCode": "33181"
    },
    {
        "warehouseNumber": "354",
        "warehouseName": "Naples",
        "latitude": 26.22,
        "longitude": -81.775,
        "address": "6275 NAPLES BLVD",
        "city": "NAPLES",
        "state": "FL",
        "zipCode": "34109"
    },
    {
        "warehouseNumber": "1682",
        "warehouseName": "North Port",
        "latitude": 27.04,
        "longitude": -82.307,
        "address": "11700 MEZZO DRIVE",
        "city": "NORTH PORT",
        "state": "FL",
        "zipCode": "34293"
    },
    {
        "warehouseNumber": "651",
        "warehouseName": "Orlando Business Center",
        "latitude": 28.404,
        "longitude": -81.406,
        "address": "2101 WATERBRIDGE BLVD",
        "city": "ORLANDO",
        "state": "FL",
        "zipCode": "32837"
    },
    {
        "warehouseNumber": "93",
        "warehouseName": "Palm Beach Gardens",
        "latitude": 26.807,
        "longitude": -80.088,
        "address": "3250 NORTHLAKE BLVD",
        "city": "PALM BEACH GARDENS",
        "state": "FL",
        "zipCode": "33403"
    },
    {
        "warehouseNumber": "742",
        "warehouseName": "Pembroke Pines",
        "latitude": 26.01,
        "longitude": -80.36,
        "address": "15915 PINES BLVD",
        "city": "PEMBROKE PINES",
        "state": "FL",
        "zipCode": "33027"
    },
    {
        "warehouseNumber": "88",
        "warehouseName": "Pompano",
        "latitude": 26.273,
        "longitude": -80.149,
        "address": "1800 W SAMPLE RD",
        "city": "POMPANO BEACH",
        "state": "FL",
        "zipCode": "33064"
    },
    {
        "warehouseNumber": "623",
        "warehouseName": "Royal Palm Beach",
        "latitude": 26.683,
        "longitude": -80.221,
        "address": "11001 SOUTHERN BLVD",
        "city": "ROYAL PALM BEACH",
        "state": "FL",
        "zipCode": "33411"
    },
    {
        "warehouseNumber": "1235",
        "warehouseName": "S Orlando",
        "latitude": 28.496,
        "longitude": -81.425,
        "address": "4696 GARDENS PARK BLVD",
        "city": "ORLANDO",
        "state": "FL",
        "zipCode": "32839"
    },
    {
        "warehouseNumber": "1123",
        "warehouseName": "Sarasota Mall",
        "latitude": 27.235,
        "longitude": -82.491,
        "address": "8201 S TAMIAMI TRL UNIT 501",
        "city": "SARASOTA",
        "state": "FL",
        "zipCode": "34238"
    },
    {
        "warehouseNumber": "1615",
        "warehouseName": "St Augustine",
        "latitude": 29.982,
        "longitude": -81.463,
        "address": "215 WORLD COMMERCE PARKWAY",
        "city": "ST. AUGUSTINE",
        "state": "FL",
        "zipCode": "32092"
    },
    {
        "warehouseNumber": "1026",
        "warehouseName": "Tallahassee",
        "latitude": 30.461,
        "longitude": -84.213,
        "address": "4067 LAGNIAPPE WAY",
        "city": "TALLAHASSEE",
        "state": "FL",
        "zipCode": "32317"
    },
    {
        "warehouseNumber": "1294",
        "warehouseName": "W Jacksonville",
        "latitude": 30.202,
        "longitude": -81.757,
        "address": "8000 PARRAMORE RD",
        "city": "JACKSONVILLE",
        "state": "FL",
        "zipCode": "32244"
    },
    {
        "warehouseNumber": "1262",
        "warehouseName": "W Tampa",
        "latitude": 28.042,
        "longitude": -82.58,
        "address": "8712 W LINEBAUGH AVE",
        "city": "TAMPA",
        "state": "FL",
        "zipCode": "33625"
    },
    {
        "warehouseNumber": "1249",
        "warehouseName": "Wesley Chapel",
        "latitude": 28.189,
        "longitude": -82.394,
        "address": "2225 GRAND CYPRESS DR",
        "city": "LUTZ",
        "state": "FL",
        "zipCode": "33559"
    },
    {
        "warehouseNumber": "743",
        "warehouseName": "Alpharetta",
        "latitude": 34.091,
        "longitude": -84.278,
        "address": "2855 JORDAN CT",
        "city": "ALPHARETTA",
        "state": "GA",
        "zipCode": "30004"
    },
    {
        "warehouseNumber": "1621",
        "warehouseName": "Athens",
        "latitude": 33.92,
        "longitude": -83.457,
        "address": "5550 PARKWAY BLVD",
        "city": "ATHENS",
        "state": "GA",
        "zipCode": "30606"
    },
    {
        "warehouseNumber": "1102",
        "warehouseName": "Augusta",
        "latitude": 33.525,
        "longitude": -82.02,
        "address": "825 CABELA DR",
        "city": "AUGUSTA",
        "state": "GA",
        "zipCode": "30909"
    },
    {
        "warehouseNumber": "1084",
        "warehouseName": "Brookhaven",
        "latitude": 33.873,
        "longitude": -84.336,
        "address": "500 BROOKHAVEN AVE NE",
        "city": "ATLANTA",
        "state": "GA",
        "zipCode": "30319"
    },
    {
        "warehouseNumber": "631",
        "warehouseName": "Cumberland Mall",
        "latitude": 33.881,
        "longitude": -84.471,
        "address": "2900 CUMBERLAND MALL SE",
        "city": "ATLANTA",
        "state": "GA",
        "zipCode": "30339"
    },
    {
        "warehouseNumber": "1175",
        "warehouseName": "Cumming",
        "latitude": 34.213,
        "longitude": -84.116,
        "address": "1211 BALD RIDGE MARINA RD",
        "city": "CUMMING",
        "state": "GA",
        "zipCode": "30041"
    },
    {
        "warehouseNumber": "1389",
        "warehouseName": "Dallas GA",
        "latitude": 33.921,
        "longitude": -84.764,
        "address": "1715 CHARLES HARDY PKWY",
        "city": "DALLAS",
        "state": "GA",
        "zipCode": "30157"
    },
    {
        "warehouseNumber": "1083",
        "warehouseName": "Fort Oglethorpe",
        "latitude": 34.968,
        "longitude": -85.194,
        "address": "100 COBB PKWY",
        "city": "RINGGOLD",
        "state": "GA",
        "zipCode": "30736"
    },
    {
        "warehouseNumber": "187",
        "warehouseName": "Gwinnett",
        "latitude": 33.948,
        "longitude": -84.143,
        "address": "3980 VENTURE DR",
        "city": "DULUTH",
        "state": "GA",
        "zipCode": "30096"
    },
    {
        "warehouseNumber": "366",
        "warehouseName": "Mall Of Georgia",
        "latitude": 34.062,
        "longitude": -83.996,
        "address": "1550 MALL OF GEORGIA BLVD",
        "city": "BUFORD",
        "state": "GA",
        "zipCode": "30519"
    },
    {
        "warehouseNumber": "579",
        "warehouseName": "Morrow Business Center",
        "latitude": 33.572,
        "longitude": -84.334,
        "address": "1700 MOUNT ZION RD",
        "city": "MORROW",
        "state": "GA",
        "zipCode": "30260"
    },
    {
        "warehouseNumber": "188",
        "warehouseName": "Perimeter",
        "latitude": 33.929,
        "longitude": -84.354,
        "address": "6350 PEACHTREE DUNWOODY RD",
        "city": "ATLANTA",
        "state": "GA",
        "zipCode": "30328"
    },
    {
        "warehouseNumber": "1485",
        "warehouseName": "Pooler",
        "latitude": 32.081,
        "longitude": -81.277,
        "address": "200 MOSAIC CIRCLE",
        "city": "POOLER",
        "state": "GA",
        "zipCode": "31322"
    },
    {
        "warehouseNumber": "1361",
        "warehouseName": "Sharpsburg",
        "latitude": 33.4,
        "longitude": -84.622,
        "address": "40 FISCHER CROSSINGS DR",
        "city": "SHARPSBURG",
        "state": "GA",
        "zipCode": "30277"
    },
    {
        "warehouseNumber": "1675",
        "warehouseName": "Stockbridge",
        "latitude": 33.481,
        "longitude": -84.219,
        "address": "2245 JODECO ROAD",
        "city": "MCDONOUGH",
        "state": "GA",
        "zipCode": "30253"
    },
    {
        "warehouseNumber": "189",
        "warehouseName": "Town Center",
        "latitude": 34.005,
        "longitude": -84.57,
        "address": "645 BARRETT PARKWAY NW",
        "city": "KENNESAW",
        "state": "GA",
        "zipCode": "30144"
    },
    {
        "warehouseNumber": "1295",
        "warehouseName": "Woodstock",
        "latitude": 34.12,
        "longitude": -84.516,
        "address": "113 LINCOLN ST",
        "city": "WOODSTOCK",
        "state": "GA",
        "zipCode": "30188"
    },
    {
        "warehouseNumber": "120",
        "warehouseName": "Hawaii Kai",
        "latitude": 21.284,
        "longitude": -157.71,
        "address": "333 A KEAHOLE STREET",
        "city": "HONOLULU",
        "state": "HI",
        "zipCode": "96825"
    },
    {
        "warehouseNumber": "687",
        "warehouseName": "Iwilei",
        "latitude": 21.318,
        "longitude": -157.87,
        "address": "525 ALAKAWA ST",
        "city": "HONOLULU",
        "state": "HI",
        "zipCode": "96817"
    },
    {
        "warehouseNumber": "1038",
        "warehouseName": "Kapolei",
        "latitude": 21.327,
        "longitude": -158.088,
        "address": "4589 KAPOLEI PKWY",
        "city": "KAPOLEI",
        "state": "HI",
        "zipCode": "96707"
    },
    {
        "warehouseNumber": "640",
        "warehouseName": "Kauai",
        "latitude": 21.967,
        "longitude": -159.381,
        "address": "4300 NUHOU ST.",
        "city": "LIHUE",
        "state": "HI",
        "zipCode": "96766"
    },
    {
        "warehouseNumber": "140",
        "warehouseName": "Kona",
        "latitude": 19.685,
        "longitude": -156.017,
        "address": "73-5600 MAIAU ST",
        "city": "KAILUA KONA",
        "state": "HI",
        "zipCode": "96740"
    },
    {
        "warehouseNumber": "119",
        "warehouseName": "Maui",
        "latitude": 20.887,
        "longitude": -156.45,
        "address": "540 HALEAKALA HWY",
        "city": "KAHULUI",
        "state": "HI",
        "zipCode": "96732"
    },
    {
        "warehouseNumber": "485",
        "warehouseName": "Waipio",
        "latitude": 21.427,
        "longitude": -158.0,
        "address": "94-1231 KA UKA BLVD",
        "city": "WAIPAHU",
        "state": "HI",
        "zipCode": "96797"
    },
    {
        "warehouseNumber": "761",
        "warehouseName": "Boise",
        "latitude": 43.586,
        "longitude": -116.276,
        "address": "2051 S COLE RD",
        "city": "BOISE",
        "state": "ID",
        "zipCode": "83709"
    },
    {
        "warehouseNumber": "773",
        "warehouseName": "Coeur D' Alene",
        "latitude": 47.709,
        "longitude": -116.783,
        "address": "355 E NEIDER AVE",
        "city": "COEUR D' ALENE",
        "state": "ID",
        "zipCode": "83815"
    },
    {
        "warehouseNumber": "1379",
        "warehouseName": "Idaho Falls",
        "latitude": 43.513,
        "longitude": -111.985,
        "address": "2495 E. LINCOLN ROAD",
        "city": "IDAHO FALLS",
        "state": "ID",
        "zipCode": "83401"
    },
    {
        "warehouseNumber": "1343",
        "warehouseName": "Meridian",
        "latitude": 43.661,
        "longitude": -116.436,
        "address": "3403 W. CHINDEN BLVD",
        "city": "MERIDIAN",
        "state": "ID",
        "zipCode": "83646"
    },
    {
        "warehouseNumber": "734",
        "warehouseName": "Nampa",
        "latitude": 43.615,
        "longitude": -116.59,
        "address": "16700 N MARKET PLACE BLVD",
        "city": "NAMPA",
        "state": "ID",
        "zipCode": "83687"
    },
    {
        "warehouseNumber": "1033",
        "warehouseName": "Pocatello",
        "latitude": 42.905,
        "longitude": -112.455,
        "address": "305 W QUINN RD",
        "city": "POCATELLO",
        "state": "ID",
        "zipCode": "83201"
    },
    {
        "warehouseNumber": "145",
        "warehouseName": "Twin Falls",
        "latitude": 42.593,
        "longitude": -114.464,
        "address": "731 POLE LINE RD",
        "city": "TWIN FALLS",
        "state": "ID",
        "zipCode": "83301"
    },
    {
        "warehouseNumber": "580",
        "warehouseName": "Bedford Park Business Center",
        "latitude": 41.759,
        "longitude": -87.745,
        "address": "7300 S CICERO AVE",
        "city": "CHICAGO",
        "state": "IL",
        "zipCode": "60629"
    },
    {
        "warehouseNumber": "371",
        "warehouseName": "Bloomingdale",
        "latitude": 41.941,
        "longitude": -88.134,
        "address": "505 W ARMY TRAIL RD",
        "city": "BLOOMINGDALE",
        "state": "IL",
        "zipCode": "60108"
    },
    {
        "warehouseNumber": "1088",
        "warehouseName": "Bolingbrook",
        "latitude": 41.728,
        "longitude": -88.032,
        "address": "830 E BOUGHTON RD",
        "city": "BOLINGBROOK",
        "state": "IL",
        "zipCode": "60440"
    },
    {
        "warehouseNumber": "1384",
        "warehouseName": "Champaign",
        "latitude": 40.141,
        "longitude": -88.245,
        "address": "2002 N. NEIL ST",
        "city": "CHAMPAIGN",
        "state": "IL",
        "zipCode": "61820"
    },
    {
        "warehouseNumber": "1107",
        "warehouseName": "Chicago South Loop",
        "latitude": 41.863,
        "longitude": -87.668,
        "address": "1430 S ASHLAND AVE",
        "city": "CHICAGO",
        "state": "IL",
        "zipCode": "60608"
    },
    {
        "warehouseNumber": "1126",
        "warehouseName": "East Peoria",
        "latitude": 40.669,
        "longitude": -89.585,
        "address": "301 W WASHINGTON ST",
        "city": "EAST PEORIA",
        "state": "IL",
        "zipCode": "61611"
    },
    {
        "warehouseNumber": "348",
        "warehouseName": "Glenview",
        "latitude": 42.109,
        "longitude": -87.822,
        "address": "2900 PATRIOT BLVD",
        "city": "GLENVIEW",
        "state": "IL",
        "zipCode": "60026"
    },
    {
        "warehouseNumber": "774",
        "warehouseName": "Lake In The Hills",
        "latitude": 42.179,
        "longitude": -88.339,
        "address": "250 N RANDALL RD",
        "city": "LAKE IN THE HILLS",
        "state": "IL",
        "zipCode": "60156"
    },
    {
        "warehouseNumber": "378",
        "warehouseName": "Lake Zurich",
        "latitude": 42.187,
        "longitude": -88.093,
        "address": "680 S RAND RD",
        "city": "LAKE ZURICH",
        "state": "IL",
        "zipCode": "60047"
    },
    {
        "warehouseNumber": "380",
        "warehouseName": "Lincoln Park",
        "latitude": 41.93,
        "longitude": -87.677,
        "address": "2746 N CLYBOURN AVE",
        "city": "CHICAGO",
        "state": "IL",
        "zipCode": "60614"
    },
    {
        "warehouseNumber": "1353",
        "warehouseName": "Loves Park",
        "latitude": 42.321,
        "longitude": -88.961,
        "address": "5000 STADIUM DRIVE",
        "city": "LOVES PARK",
        "state": "IL",
        "zipCode": "61111"
    },
    {
        "warehouseNumber": "1085",
        "warehouseName": "Melrose Park",
        "latitude": 41.91,
        "longitude": -87.836,
        "address": "8400 W NORTH AVE",
        "city": "MELROSE PARK",
        "state": "IL",
        "zipCode": "60160"
    },
    {
        "warehouseNumber": "1074",
        "warehouseName": "Mettawa",
        "latitude": 42.237,
        "longitude": -87.903,
        "address": "25901 RIVERWOODS RD",
        "city": "METTAWA",
        "state": "IL",
        "zipCode": "60045"
    },
    {
        "warehouseNumber": "779",
        "warehouseName": "Mt Prospect",
        "latitude": 42.083,
        "longitude": -87.933,
        "address": "999 N ELMHURST RD",
        "city": "MOUNT PROSPECT",
        "state": "IL",
        "zipCode": "60056"
    },
    {
        "warehouseNumber": "1443",
        "warehouseName": "NE Naperville",
        "latitude": 41.798,
        "longitude": -88.124,
        "address": "1255 EAST OGDEN AVE",
        "city": "NAPERVILLE",
        "state": "IL",
        "zipCode": "60563"
    },
    {
        "warehouseNumber": "342",
        "warehouseName": "Naperville",
        "latitude": 41.746,
        "longitude": -88.204,
        "address": "1320 S ROUTE 59",
        "city": "NAPERVILLE",
        "state": "IL",
        "zipCode": "60564"
    },
    {
        "warehouseNumber": "383",
        "warehouseName": "Niles",
        "latitude": 42.015,
        "longitude": -87.78,
        "address": "7311 N MELVINA AVE",
        "city": "NILES",
        "state": "IL",
        "zipCode": "60714"
    },
    {
        "warehouseNumber": "1153",
        "warehouseName": "North Riverside IL",
        "latitude": 41.844,
        "longitude": -87.806,
        "address": "2500 SOUTH HARLEM AVE",
        "city": "NORTH RIVERSIDE",
        "state": "IL",
        "zipCode": "60546"
    },
    {
        "warehouseNumber": "388",
        "warehouseName": "Oak Brook",
        "latitude": 41.845,
        "longitude": -87.965,
        "address": "1901 W 22ND ST",
        "city": "OAK BROOK",
        "state": "IL",
        "zipCode": "60523"
    },
    {
        "warehouseNumber": "647",
        "warehouseName": "Orland Park",
        "latitude": 41.6,
        "longitude": -87.861,
        "address": "9915 W 159TH ST",
        "city": "ORLAND PARK",
        "state": "IL",
        "zipCode": "60467"
    },
    {
        "warehouseNumber": "1388",
        "warehouseName": "Plainfield",
        "latitude": 41.587,
        "longitude": -88.169,
        "address": "16261 S. BOULEVARD PLACE",
        "city": "PLAINFIELD",
        "state": "IL",
        "zipCode": "60586"
    },
    {
        "warehouseNumber": "387",
        "warehouseName": "Schaumburg",
        "latitude": 42.055,
        "longitude": -88.042,
        "address": "1375 N MEACHAM RD",
        "city": "SCHAUMBURG",
        "state": "IL",
        "zipCode": "60173"
    },
    {
        "warehouseNumber": "1040",
        "warehouseName": "St Charles",
        "latitude": 41.909,
        "longitude": -88.342,
        "address": "221 S RANDALL RD",
        "city": "SAINT CHARLES",
        "state": "IL",
        "zipCode": "60174"
    },
    {
        "warehouseNumber": "1577",
        "warehouseName": "Avon IN",
        "latitude": 39.766,
        "longitude": -86.365,
        "address": "8816 DR. CHARLES NELSON DRIVE",
        "city": "AVON",
        "state": "IN",
        "zipCode": "46123"
    },
    {
        "warehouseNumber": "346",
        "warehouseName": "Castleton",
        "latitude": 39.914,
        "longitude": -86.062,
        "address": "6110 E 86TH ST",
        "city": "INDIANAPOLIS",
        "state": "IN",
        "zipCode": "46250"
    },
    {
        "warehouseNumber": "1331",
        "warehouseName": "Evansville",
        "latitude": 37.988,
        "longitude": -87.462,
        "address": "1201 CROSS POINTE PL",
        "city": "EVANSVILLE",
        "state": "IN",
        "zipCode": "47715"
    },
    {
        "warehouseNumber": "1161",
        "warehouseName": "Fort Wayne",
        "latitude": 41.126,
        "longitude": -85.158,
        "address": "5110 VALUE DR",
        "city": "FORT WAYNE",
        "state": "IN",
        "zipCode": "46808"
    },
    {
        "warehouseNumber": "347",
        "warehouseName": "Fortune Park",
        "latitude": 39.917,
        "longitude": -86.227,
        "address": "9010 MICHIGAN RD",
        "city": "INDIANAPOLIS",
        "state": "IN",
        "zipCode": "46268"
    },
    {
        "warehouseNumber": "370",
        "warehouseName": "Merrillville",
        "latitude": 41.475,
        "longitude": -87.322,
        "address": "1310 E 79TH AVE",
        "city": "MERRILLVILLE",
        "state": "IN",
        "zipCode": "46410"
    },
    {
        "warehouseNumber": "1183",
        "warehouseName": "Mishawaka",
        "latitude": 41.719,
        "longitude": -86.172,
        "address": "625 E UNIVERSITY DR",
        "city": "GRANGER",
        "state": "IN",
        "zipCode": "46530"
    },
    {
        "warehouseNumber": "1666",
        "warehouseName": "Noblesville",
        "latitude": 40.004,
        "longitude": -86.003,
        "address": "14775 NORTH POINTE BLVD",
        "city": "NOBLESVILLE",
        "state": "IN",
        "zipCode": "46060"
    },
    {
        "warehouseNumber": "1227",
        "warehouseName": "S Indianapolis",
        "latitude": 39.638,
        "longitude": -86.089,
        "address": "4628 E COUNTY LINE RD",
        "city": "INDIANAPOLIS",
        "state": "IN",
        "zipCode": "46237"
    },
    {
        "warehouseNumber": "1630",
        "warehouseName": "Ankeny",
        "latitude": 41.762,
        "longitude": -93.567,
        "address": "4000 NE SPECTRUM DRIVE",
        "city": "ANKENY",
        "state": "IA",
        "zipCode": "50021"
    },
    {
        "warehouseNumber": "1111",
        "warehouseName": "Coralville",
        "latitude": 41.699,
        "longitude": -91.616,
        "address": "2900 HEARTLAND DR",
        "city": "CORALVILLE",
        "state": "IA",
        "zipCode": "52241"
    },
    {
        "warehouseNumber": "1325",
        "warehouseName": "Davenport",
        "latitude": 41.577,
        "longitude": -90.534,
        "address": "2790 E 53RD ST",
        "city": "DAVENPORT",
        "state": "IA",
        "zipCode": "52807"
    },
    {
        "warehouseNumber": "788",
        "warehouseName": "West Des Moines",
        "latitude": 41.563,
        "longitude": -93.805,
        "address": "7205 MILLS CIVIC PKWY",
        "city": "WEST DES MOINES",
        "state": "IA",
        "zipCode": "50266"
    },
    {
        "warehouseNumber": "349",
        "warehouseName": "Lenexa",
        "latitude": 38.958,
        "longitude": -94.733,
        "address": "9350 MARSHALL DR",
        "city": "LENEXA",
        "state": "KS",
        "zipCode": "66215"
    },
    {
        "warehouseNumber": "369",
        "warehouseName": "Overland Park",
        "latitude": 38.907,
        "longitude": -94.671,
        "address": "12221 BLUE VALLEY PKWY",
        "city": "OVERLAND PARK",
        "state": "KS",
        "zipCode": "66213"
    },
    {
        "warehouseNumber": "1200",
        "warehouseName": "Wichita",
        "latitude": 37.68,
        "longitude": -97.224,
        "address": "9700 E KELLOGG",
        "city": "WICHITA",
        "state": "KS",
        "zipCode": "67207"
    },
    {
        "warehouseNumber": "1197",
        "warehouseName": "Florence",
        "latitude": 38.989,
        "longitude": -84.645,
        "address": "800 HEIGHTS BLVD",
        "city": "FLORENCE",
        "state": "KY",
        "zipCode": "41042"
    },
    {
        "warehouseNumber": "1156",
        "warehouseName": "Lexington",
        "latitude": 38.025,
        "longitude": -84.41,
        "address": "1500 FITZGERALD CT",
        "city": "LEXINGTON",
        "state": "KY",
        "zipCode": "40509"
    },
    {
        "warehouseNumber": "1238",
        "warehouseName": "Louisville",
        "latitude": 38.204,
        "longitude": -85.669,
        "address": "3408 BARDSTOWN RD",
        "city": "LOUISVILLE",
        "state": "KY",
        "zipCode": "40218"
    },
    {
        "warehouseNumber": "634",
        "warehouseName": "NE Louisville",
        "latitude": 38.316,
        "longitude": -85.573,
        "address": "5020 NORTON HEALTHCARE BLVD",
        "city": "LOUISVILLE",
        "state": "KY",
        "zipCode": "40241"
    },
    {
        "warehouseNumber": "1172",
        "warehouseName": "Baton Rouge",
        "latitude": 30.419,
        "longitude": -91.074,
        "address": "10000 DAWNADELE AVE BLDG A",
        "city": "BATON ROUGE",
        "state": "LA",
        "zipCode": "70809"
    },
    {
        "warehouseNumber": "1670",
        "warehouseName": "Covington LA",
        "latitude": 30.447,
        "longitude": -90.131,
        "address": "4001 PINNACLE PKWY",
        "city": "COVINGTON",
        "state": "LA",
        "zipCode": "70433"
    },
    {
        "warehouseNumber": "1201",
        "warehouseName": "Lafayette",
        "latitude": 30.156,
        "longitude": -92.043,
        "address": "201 MEADOW FARM RD",
        "city": "LAFAYETTE",
        "state": "LA",
        "zipCode": "70508"
    },
    {
        "warehouseNumber": "1147",
        "warehouseName": "New Orleans",
        "latitude": 29.968,
        "longitude": -90.11,
        "address": "3900 DUBLIN ST",
        "city": "NEW ORLEANS",
        "state": "LA",
        "zipCode": "70118"
    },
    {
        "warehouseNumber": "1657",
        "warehouseName": "Scarborough ME",
        "latitude": 43.609,
        "longitude": -70.358,
        "address": "455 SCARBOROUGH DOWNS ROAD",
        "city": "SCARBOROUGH",
        "state": "ME",
        "zipCode": "04074"
    },
    {
        "warehouseNumber": "325",
        "warehouseName": "Arundel Mills",
        "latitude": 39.156,
        "longitude": -76.731,
        "address": "7077 ARUNDEL MILLS CIR",
        "city": "HANOVER",
        "state": "MD",
        "zipCode": "21076"
    },
    {
        "warehouseNumber": "214",
        "warehouseName": "Beltsville",
        "latitude": 39.032,
        "longitude": -76.909,
        "address": "10925 BALTIMORE AVE",
        "city": "BELTSVILLE",
        "state": "MD",
        "zipCode": "20705"
    },
    {
        "warehouseNumber": "1039",
        "warehouseName": "Brandywine",
        "latitude": 38.67,
        "longitude": -76.873,
        "address": "16006 CRAIN HWY",
        "city": "BRANDYWINE",
        "state": "MD",
        "zipCode": "20613"
    },
    {
        "warehouseNumber": "1000",
        "warehouseName": "Columbia MD",
        "latitude": 39.187,
        "longitude": -76.794,
        "address": "6675 MARIE CURIE DR",
        "city": "ELKRIDGE",
        "state": "MD",
        "zipCode": "21075"
    },
    {
        "warehouseNumber": "330",
        "warehouseName": "Frederick",
        "latitude": 39.401,
        "longitude": -77.408,
        "address": "10 MONOCACY BLVD",
        "city": "FREDERICK",
        "state": "MD",
        "zipCode": "21704"
    },
    {
        "warehouseNumber": "213",
        "warehouseName": "Gaithersburg",
        "latitude": 39.156,
        "longitude": -77.214,
        "address": "880 RUSSELL AVE",
        "city": "GAITHERSBURG",
        "state": "MD",
        "zipCode": "20879"
    },
    {
        "warehouseNumber": "203",
        "warehouseName": "Glen Burnie",
        "latitude": 39.196,
        "longitude": -76.6,
        "address": "575 E ORDNANCE RD",
        "city": "GLEN BURNIE",
        "state": "MD",
        "zipCode": "21060"
    },
    {
        "warehouseNumber": "1326",
        "warehouseName": "Owings Mills",
        "latitude": 39.406,
        "longitude": -76.789,
        "address": "10270 MILL RUN CIRCLE",
        "city": "OWINGS MILLS",
        "state": "MD",
        "zipCode": "21117"
    },
    {
        "warehouseNumber": "1124",
        "warehouseName": "Wheaton",
        "latitude": 39.036,
        "longitude": -77.056,
        "address": "11160 VEIRS MILL RD",
        "city": "WHEATON",
        "state": "MD",
        "zipCode": "20902"
    },
    {
        "warehouseNumber": "208",
        "warehouseName": "White Marsh",
        "latitude": 39.358,
        "longitude": -76.445,
        "address": "9919 PULASKI HWY",
        "city": "BALTIMORE",
        "state": "MD",
        "zipCode": "21220"
    },
    {
        "warehouseNumber": "1078",
        "warehouseName": "Woodmore Towne Centre",
        "latitude": 38.923,
        "longitude": -76.851,
        "address": "2400 FIVE LEES LN",
        "city": "GLENARDEN",
        "state": "MD",
        "zipCode": "20706"
    },
    {
        "warehouseNumber": "303",
        "warehouseName": "Avon MA",
        "latitude": 42.137,
        "longitude": -71.066,
        "address": "120 STOCKWELL DR",
        "city": "AVON",
        "state": "MA",
        "zipCode": "02322"
    },
    {
        "warehouseNumber": "301",
        "warehouseName": "Danvers",
        "latitude": 42.557,
        "longitude": -70.977,
        "address": "11 NEWBURY ST",
        "city": "DANVERS",
        "state": "MA",
        "zipCode": "01923"
    },
    {
        "warehouseNumber": "319",
        "warehouseName": "Dedham",
        "latitude": 42.232,
        "longitude": -71.173,
        "address": "200 LEGACY BLVD",
        "city": "DEDHAM",
        "state": "MA",
        "zipCode": "02026"
    },
    {
        "warehouseNumber": "333",
        "warehouseName": "Everett MA",
        "latitude": 42.397,
        "longitude": -71.072,
        "address": "2 MYSTIC VIEW RD",
        "city": "EVERETT",
        "state": "MA",
        "zipCode": "02149"
    },
    {
        "warehouseNumber": "308",
        "warehouseName": "Waltham",
        "latitude": 42.395,
        "longitude": -71.265,
        "address": "71 2ND AVE",
        "city": "WALTHAM",
        "state": "MA",
        "zipCode": "02451"
    },
    {
        "warehouseNumber": "302",
        "warehouseName": "West Springfield",
        "latitude": 42.132,
        "longitude": -72.621,
        "address": "119 DAGGETT DR",
        "city": "WEST SPRINGFIELD",
        "state": "MA",
        "zipCode": "01089"
    },
    {
        "warehouseNumber": "376",
        "warehouseName": "Auburn Hills",
        "latitude": 42.706,
        "longitude": -83.296,
        "address": "400 BROWN RD",
        "city": "AUBURN HILLS",
        "state": "MI",
        "zipCode": "48326"
    },
    {
        "warehouseNumber": "1037",
        "warehouseName": "Bloomfield",
        "latitude": 42.607,
        "longitude": -83.293,
        "address": "2343 S TELEGRAPH RD",
        "city": "BLOOMFIELD",
        "state": "MI",
        "zipCode": "48302"
    },
    {
        "warehouseNumber": "341",
        "warehouseName": "Commerce Township",
        "latitude": 42.534,
        "longitude": -83.445,
        "address": "3000 COMMERCE XING",
        "city": "COMMERCE TOWNSHIP",
        "state": "MI",
        "zipCode": "48390"
    },
    {
        "warehouseNumber": "1277",
        "warehouseName": "East Lansing",
        "latitude": 42.752,
        "longitude": -84.444,
        "address": "2540 E SAGINAW HIGHWAY",
        "city": "EAST LANSING",
        "state": "MI",
        "zipCode": "48823"
    },
    {
        "warehouseNumber": "784",
        "warehouseName": "Grand Rapids",
        "latitude": 42.911,
        "longitude": -85.543,
        "address": "5100 28TH ST SE",
        "city": "GRAND RAPIDS",
        "state": "MI",
        "zipCode": "49512"
    },
    {
        "warehouseNumber": "786",
        "warehouseName": "Green Oak Township",
        "latitude": 42.504,
        "longitude": -83.762,
        "address": "6700 WHITMORE LAKE RD",
        "city": "BRIGHTON",
        "state": "MI",
        "zipCode": "48116"
    },
    {
        "warehouseNumber": "391",
        "warehouseName": "Haggerty",
        "latitude": 42.433,
        "longitude": -83.43,
        "address": "20000 HAGGERTY RD",
        "city": "LIVONIA",
        "state": "MI",
        "zipCode": "48152"
    },
    {
        "warehouseNumber": "1191",
        "warehouseName": "Kalamazoo",
        "latitude": 42.272,
        "longitude": -85.651,
        "address": "5100 CENTURY AVE",
        "city": "KALAMAZOO",
        "state": "MI",
        "zipCode": "49006"
    },
    {
        "warehouseNumber": "374",
        "warehouseName": "Lakeside",
        "latitude": 42.63,
        "longitude": -82.979,
        "address": "45460 MARKET ST",
        "city": "SHELBY TOWNSHIP",
        "state": "MI",
        "zipCode": "48315"
    },
    {
        "warehouseNumber": "393",
        "warehouseName": "Madison Heights",
        "latitude": 42.516,
        "longitude": -83.117,
        "address": "30550 STEPHENSON HWY",
        "city": "MADISON HEIGHTS",
        "state": "MI",
        "zipCode": "48071"
    },
    {
        "warehouseNumber": "390",
        "warehouseName": "Middlebelt",
        "latitude": 42.382,
        "longitude": -83.332,
        "address": "13700 MIDDLEBELT RD",
        "city": "LIVONIA",
        "state": "MI",
        "zipCode": "48150"
    },
    {
        "warehouseNumber": "1420",
        "warehouseName": "Midland",
        "latitude": 43.603,
        "longitude": -84.17,
        "address": "4816 BAY CITY RD",
        "city": "MIDLAND",
        "state": "MI",
        "zipCode": "48642"
    },
    {
        "warehouseNumber": "1106",
        "warehouseName": "Pittsfield Township",
        "latitude": 42.231,
        "longitude": -83.744,
        "address": "771 AIRPORT BLVD",
        "city": "ANN ARBOR",
        "state": "MI",
        "zipCode": "48108"
    },
    {
        "warehouseNumber": "394",
        "warehouseName": "Roseville MI",
        "latitude": 42.496,
        "longitude": -82.935,
        "address": "27118 GRATIOT AVE",
        "city": "ROSEVILLE",
        "state": "MI",
        "zipCode": "48066"
    },
    {
        "warehouseNumber": "1663",
        "warehouseName": "Southfield Business Center",
        "latitude": 42.448,
        "longitude": -83.205,
        "address": "21110 NORTHWESTERN HWY",
        "city": "SOUTHFIELD",
        "state": "MI",
        "zipCode": "48075"
    },
    {
        "warehouseNumber": "1279",
        "warehouseName": "Traverse City",
        "latitude": 44.734,
        "longitude": -85.572,
        "address": "125 E SOUTH AIRPORT RD",
        "city": "TRAVERSE CITY",
        "state": "MI",
        "zipCode": "49686"
    },
    {
        "warehouseNumber": "744",
        "warehouseName": "Wyoming",
        "latitude": 42.876,
        "longitude": -85.763,
        "address": "4901 WILSON AVE SW",
        "city": "WYOMING",
        "state": "MI",
        "zipCode": "49418"
    },
    {
        "warehouseNumber": "1122",
        "warehouseName": "Baxter",
        "latitude": 46.349,
        "longitude": -94.247,
        "address": "13650 ELDER DR",
        "city": "BAXTER",
        "state": "MN",
        "zipCode": "56425"
    },
    {
        "warehouseNumber": "1087",
        "warehouseName": "Burnsville",
        "latitude": 44.75,
        "longitude": -93.295,
        "address": "14050 BURNHAVEN DR",
        "city": "BURNSVILLE",
        "state": "MN",
        "zipCode": "55337"
    },
    {
        "warehouseNumber": "1646",
        "warehouseName": "Chaska",
        "latitude": 44.841,
        "longitude": -93.602,
        "address": "2 OAKRIDGE DRIVE",
        "city": "CHASKA",
        "state": "MN",
        "zipCode": "55318"
    },
    {
        "warehouseNumber": "372",
        "warehouseName": "Coon Rapids",
        "latitude": 45.199,
        "longitude": -93.348,
        "address": "12547 RIVERDALE BLVD NW",
        "city": "MINNEAPOLIS",
        "state": "MN",
        "zipCode": "55448"
    },
    {
        "warehouseNumber": "1422",
        "warehouseName": "Duluth",
        "latitude": 46.823,
        "longitude": -92.173,
        "address": "4611 W ARROWHEAD RD.",
        "city": "DULUTH",
        "state": "MN",
        "zipCode": "55811"
    },
    {
        "warehouseNumber": "1363",
        "warehouseName": "Eagan",
        "latitude": 44.86,
        "longitude": -93.141,
        "address": "995 BLUE GENTIAN RD",
        "city": "EAGAN",
        "state": "MN",
        "zipCode": "55121"
    },
    {
        "warehouseNumber": "783",
        "warehouseName": "Eden Prairie",
        "latitude": 44.861,
        "longitude": -93.436,
        "address": "12011 TECHNOLOGY DR",
        "city": "EDEN PRAIRIE",
        "state": "MN",
        "zipCode": "55344"
    },
    {
        "warehouseNumber": "648",
        "warehouseName": "Maple Grove",
        "latitude": 45.093,
        "longitude": -93.425,
        "address": "11330 FOUNTAINS DR",
        "city": "MAPLE GROVE",
        "state": "MN",
        "zipCode": "55369"
    },
    {
        "warehouseNumber": "1021",
        "warehouseName": "Maplewood",
        "latitude": 45.029,
        "longitude": -93.04,
        "address": "1431 BEAM AVE",
        "city": "MAPLEWOOD",
        "state": "MN",
        "zipCode": "55109"
    },
    {
        "warehouseNumber": "652",
        "warehouseName": "Minneapolis Business Center",
        "latitude": 45.0,
        "longitude": -93.216,
        "address": "3311 BROADWAY ST NE",
        "city": "MINNEAPOLIS",
        "state": "MN",
        "zipCode": "55413"
    },
    {
        "warehouseNumber": "1125",
        "warehouseName": "Rochester MN",
        "latitude": 44.047,
        "longitude": -92.518,
        "address": "2020 COMMERCE DR NW",
        "city": "ROCHESTER",
        "state": "MN",
        "zipCode": "55901"
    },
    {
        "warehouseNumber": "1344",
        "warehouseName": "St Cloud",
        "latitude": 45.549,
        "longitude": -94.2,
        "address": "3636 2ND ST S",
        "city": "SAINT CLOUD",
        "state": "MN",
        "zipCode": "56301"
    },
    {
        "warehouseNumber": "377",
        "warehouseName": "St Louis Park",
        "latitude": 44.967,
        "longitude": -93.354,
        "address": "5801 W 16TH ST",
        "city": "SAINT LOUIS PARK",
        "state": "MN",
        "zipCode": "55416"
    },
    {
        "warehouseNumber": "1272",
        "warehouseName": "Woodbury",
        "latitude": 44.939,
        "longitude": -92.963,
        "address": "7070 TAMARACK ROAD",
        "city": "WOODBURY",
        "state": "MN",
        "zipCode": "55125"
    },
    {
        "warehouseNumber": "1366",
        "warehouseName": "Ridgeland",
        "latitude": 32.423,
        "longitude": -90.147,
        "address": "700 HIGHLAND COLONY PKWY",
        "city": "RIDGELAND",
        "state": "MS",
        "zipCode": "39157"
    },
    {
        "warehouseNumber": "373",
        "warehouseName": "Independence",
        "latitude": 39.036,
        "longitude": -94.357,
        "address": "19040 E VALLEY VIEW PKWY",
        "city": "INDEPENDENCE",
        "state": "MO",
        "zipCode": "64055"
    },
    {
        "warehouseNumber": "375",
        "warehouseName": "Kansas City",
        "latitude": 39.067,
        "longitude": -94.581,
        "address": "241 E LINWOOD BLVD",
        "city": "KANSAS CITY",
        "state": "MO",
        "zipCode": "64111"
    },
    {
        "warehouseNumber": "1060",
        "warehouseName": "Manchester MO",
        "latitude": 38.598,
        "longitude": -90.507,
        "address": "301 HIGHLANDS BLVD DRIVE",
        "city": "MANCHESTER",
        "state": "MO",
        "zipCode": "63011"
    },
    {
        "warehouseNumber": "1268",
        "warehouseName": "N Kansas City",
        "latitude": 39.255,
        "longitude": -94.599,
        "address": "1600 NW 88TH ST",
        "city": "KANSAS CITY",
        "state": "MO",
        "zipCode": "64155"
    },
    {
        "warehouseNumber": "368",
        "warehouseName": "S St Louis",
        "latitude": 38.508,
        "longitude": -90.339,
        "address": "4200 RUSTY RD",
        "city": "SAINT LOUIS",
        "state": "MO",
        "zipCode": "63128"
    },
    {
        "warehouseNumber": "1486",
        "warehouseName": "Springfield",
        "latitude": 37.207,
        "longitude": -93.224,
        "address": "279 N. EASTGATE AVENUE",
        "city": "SPRINGFIELD",
        "state": "MO",
        "zipCode": "65802"
    },
    {
        "warehouseNumber": "1665",
        "warehouseName": "St John Business Center",
        "latitude": 38.705,
        "longitude": -90.335,
        "address": "8421 ST JOHN INDUSTRIAL LANE",
        "city": "ST. LOUIS",
        "state": "MO",
        "zipCode": "63114"
    },
    {
        "warehouseNumber": "382",
        "warehouseName": "St Peters",
        "latitude": 38.797,
        "longitude": -90.607,
        "address": "200 COSTCO WAY",
        "city": "SAINT PETERS",
        "state": "MO",
        "zipCode": "63376"
    },
    {
        "warehouseNumber": "1488",
        "warehouseName": "University City",
        "latitude": 38.676,
        "longitude": -90.36,
        "address": "8685 OLIVE BLVD",
        "city": "SAINT LOUIS",
        "state": "MO",
        "zipCode": "63132"
    },
    {
        "warehouseNumber": "1644",
        "warehouseName": "Billings",
        "latitude": 45.734,
        "longitude": -108.614,
        "address": "3880 ZOO DRIVE",
        "city": "BILLINGS",
        "state": "MT",
        "zipCode": "59102"
    },
    {
        "warehouseNumber": "96",
        "warehouseName": "Bozeman",
        "latitude": 45.713,
        "longitude": -111.07,
        "address": "2505 CATRON ST",
        "city": "BOZEMAN",
        "state": "MT",
        "zipCode": "59718"
    },
    {
        "warehouseNumber": "633",
        "warehouseName": "Helena",
        "latitude": 46.616,
        "longitude": -112.003,
        "address": "2195 E CUSTER AVE",
        "city": "HELENA",
        "state": "MT",
        "zipCode": "59602"
    },
    {
        "warehouseNumber": "745",
        "warehouseName": "Kalispell",
        "latitude": 48.234,
        "longitude": -114.333,
        "address": "2330 US HIGHWAY 93 N",
        "city": "KALISPELL",
        "state": "MT",
        "zipCode": "59901"
    },
    {
        "warehouseNumber": "67",
        "warehouseName": "Missoula",
        "latitude": 46.895,
        "longitude": -114.038,
        "address": "3220 N RESERVE ST",
        "city": "MISSOULA",
        "state": "MT",
        "zipCode": "59808"
    },
    {
        "warehouseNumber": "1237",
        "warehouseName": "La Vista",
        "latitude": 41.178,
        "longitude": -96.109,
        "address": "12515 PORTSIDE PARKWAY",
        "city": "LA VISTA",
        "state": "NE",
        "zipCode": "68128"
    },
    {
        "warehouseNumber": "1285",
        "warehouseName": "Lincoln",
        "latitude": 40.739,
        "longitude": -96.697,
        "address": "1620 PINE LAKE ROAD",
        "city": "LINCOLN",
        "state": "NE",
        "zipCode": "68512"
    },
    {
        "warehouseNumber": "1690",
        "warehouseName": "NW Omaha",
        "latitude": 41.29,
        "longitude": -96.192,
        "address": "17701 EVANS ST",
        "city": "OMAHA",
        "state": "NE",
        "zipCode": "68116"
    },
    {
        "warehouseNumber": "1012",
        "warehouseName": "Omaha",
        "latitude": 41.265,
        "longitude": -96.106,
        "address": "12300 W DODGE RD",
        "city": "OMAHA",
        "state": "NE",
        "zipCode": "68154"
    },
    {
        "warehouseNumber": "127",
        "warehouseName": "Carson City",
        "latitude": 39.117,
        "longitude": -119.777,
        "address": "700 OLD CLEAR CREEK RD",
        "city": "CARSON CITY",
        "state": "NV",
        "zipCode": "89705"
    },
    {
        "warehouseNumber": "737",
        "warehouseName": "Centennial",
        "latitude": 36.278,
        "longitude": -115.209,
        "address": "6555 N. DECATUR BLVD",
        "city": "LAS VEGAS",
        "state": "NV",
        "zipCode": "89131"
    },
    {
        "warehouseNumber": "673",
        "warehouseName": "Henderson",
        "latitude": 36.069,
        "longitude": -115.037,
        "address": "791 MARKS ST",
        "city": "HENDERSON",
        "state": "NV",
        "zipCode": "89014"
    },
    {
        "warehouseNumber": "563",
        "warehouseName": "Las Vegas Business Center",
        "latitude": 36.172,
        "longitude": -115.162,
        "address": "222 S MARTIN L KING BLVD",
        "city": "LAS VEGAS",
        "state": "NV",
        "zipCode": "89106"
    },
    {
        "warehouseNumber": "25",
        "warehouseName": "Reno",
        "latitude": 39.503,
        "longitude": -119.784,
        "address": "2200 HARVARD WAY",
        "city": "RENO",
        "state": "NV",
        "zipCode": "89502"
    },
    {
        "warehouseNumber": "1320",
        "warehouseName": "SW Henderson",
        "latitude": 35.988,
        "longitude": -115.138,
        "address": "3411 SAINT ROSE PKWY",
        "city": "HENDERSON",
        "state": "NV",
        "zipCode": "89052"
    },
    {
        "warehouseNumber": "646",
        "warehouseName": "Sparks",
        "latitude": 39.579,
        "longitude": -119.739,
        "address": "4810 GALLERIA PKWY",
        "city": "SPARKS",
        "state": "NV",
        "zipCode": "89436"
    },
    {
        "warehouseNumber": "685",
        "warehouseName": "Summerlin",
        "latitude": 36.163,
        "longitude": -115.333,
        "address": "801 S PAVILION CENTER DR",
        "city": "LAS VEGAS",
        "state": "NV",
        "zipCode": "89144"
    },
    {
        "warehouseNumber": "307",
        "warehouseName": "Nashua",
        "latitude": 42.702,
        "longitude": -71.443,
        "address": "311 DANIEL WEBSTER HWY",
        "city": "NASHUA",
        "state": "NH",
        "zipCode": "03060"
    },
    {
        "warehouseNumber": "1334",
        "warehouseName": "Bayonne",
        "latitude": 40.674,
        "longitude": -74.104,
        "address": "21 GOLDSBOROUGH DR",
        "city": "BAYONNE",
        "state": "NJ",
        "zipCode": "07002"
    },
    {
        "warehouseNumber": "739",
        "warehouseName": "Brick Township",
        "latitude": 40.055,
        "longitude": -74.157,
        "address": "465 ROUTE 70",
        "city": "BRICK",
        "state": "NJ",
        "zipCode": "08723"
    },
    {
        "warehouseNumber": "322",
        "warehouseName": "Bridgewater",
        "latitude": 40.563,
        "longitude": -74.558,
        "address": "325 PROMENADE BLVD",
        "city": "BRIDGEWATER",
        "state": "NJ",
        "zipCode": "08807"
    },
    {
        "warehouseNumber": "1415",
        "warehouseName": "Cherry Hill",
        "latitude": 39.927,
        "longitude": -75.04,
        "address": "650 GARDEN PARK BLVD",
        "city": "CHERRY HILL",
        "state": "NJ",
        "zipCode": "08002"
    },
    {
        "warehouseNumber": "306",
        "warehouseName": "Clifton",
        "latitude": 40.832,
        "longitude": -74.137,
        "address": "20 BRIDEWELL PL",
        "city": "CLIFTON",
        "state": "NJ",
        "zipCode": "07014"
    },
    {
        "warehouseNumber": "244",
        "warehouseName": "East Hanover",
        "latitude": 40.812,
        "longitude": -74.38,
        "address": "156 SR-10 WEST",
        "city": "EAST HANOVER",
        "state": "NJ",
        "zipCode": "07936"
    },
    {
        "warehouseNumber": "323",
        "warehouseName": "Edison",
        "latitude": 40.53,
        "longitude": -74.376,
        "address": "205 VINEYARD RD",
        "city": "EDISON",
        "state": "NJ",
        "zipCode": "08817"
    },
    {
        "warehouseNumber": "1236",
        "warehouseName": "Flemington",
        "latitude": 40.522,
        "longitude": -74.852,
        "address": "2A WALTER E FORAN BLVD N",
        "city": "FLEMINGTON",
        "state": "NJ",
        "zipCode": "08822"
    },
    {
        "warehouseNumber": "729",
        "warehouseName": "Hackensack Business Center",
        "latitude": 40.876,
        "longitude": -74.039,
        "address": "80 S RIVER ST",
        "city": "HACKENSACK",
        "state": "NJ",
        "zipCode": "07601"
    },
    {
        "warehouseNumber": "222",
        "warehouseName": "Hazlet",
        "latitude": 40.419,
        "longitude": -74.171,
        "address": "2835 ROUTE 35 N",
        "city": "HAZLET",
        "state": "NJ",
        "zipCode": "07730"
    },
    {
        "warehouseNumber": "1025",
        "warehouseName": "Manahawkin",
        "latitude": 39.707,
        "longitude": -74.288,
        "address": "245 STAFFORD PARK BLVD",
        "city": "STAFFORD TOWNSHIP",
        "state": "NJ",
        "zipCode": "08050"
    },
    {
        "warehouseNumber": "1093",
        "warehouseName": "Marlboro",
        "latitude": 40.362,
        "longitude": -74.303,
        "address": "18 ROUTE 9 NORTH",
        "city": "MORGANVILLE",
        "state": "NJ",
        "zipCode": "07751"
    },
    {
        "warehouseNumber": "749",
        "warehouseName": "Mt Laurel",
        "latitude": 39.972,
        "longitude": -74.908,
        "address": "100 CENTERTON RD",
        "city": "MOUNT LAUREL",
        "state": "NJ",
        "zipCode": "08054"
    },
    {
        "warehouseNumber": "1174",
        "warehouseName": "North Brunswick",
        "latitude": 40.437,
        "longitude": -74.507,
        "address": "100 GRAND AVENUE",
        "city": "NORTH BRUNSWICK",
        "state": "NJ",
        "zipCode": "08902"
    },
    {
        "warehouseNumber": "1166",
        "warehouseName": "North Plainfield",
        "latitude": 40.612,
        "longitude": -74.459,
        "address": "1290 US HIGHWAY 22E",
        "city": "NORTH PLAINFIELD",
        "state": "NJ",
        "zipCode": "07060"
    },
    {
        "warehouseNumber": "329",
        "warehouseName": "Ocean Township",
        "latitude": 40.233,
        "longitude": -74.046,
        "address": "2361 STATE ROUTE 66",
        "city": "OCEAN",
        "state": "NJ",
        "zipCode": "07712"
    },
    {
        "warehouseNumber": "1199",
        "warehouseName": "Princeton",
        "latitude": 40.282,
        "longitude": -74.675,
        "address": "4100 QUAKERBRIDGE RD",
        "city": "LAWRENCE TOWNSHIP",
        "state": "NJ",
        "zipCode": "08648"
    },
    {
        "warehouseNumber": "1214",
        "warehouseName": "Teterboro",
        "latitude": 40.861,
        "longitude": -74.064,
        "address": "2 TETERBORO LANDING DR",
        "city": "TETERBORO",
        "state": "NJ",
        "zipCode": "07608"
    },
    {
        "warehouseNumber": "320",
        "warehouseName": "Union",
        "latitude": 40.694,
        "longitude": -74.288,
        "address": "1055 HUDSON ST",
        "city": "UNION",
        "state": "NJ",
        "zipCode": "07083"
    },
    {
        "warehouseNumber": "1177",
        "warehouseName": "Wayne",
        "latitude": 40.891,
        "longitude": -74.255,
        "address": "149 STATE ROUTE 23",
        "city": "WAYNE",
        "state": "NJ",
        "zipCode": "07470"
    },
    {
        "warehouseNumber": "315",
        "warehouseName": "Wharton",
        "latitude": 40.907,
        "longitude": -74.569,
        "address": "315 STATE ROUTE 15 N",
        "city": "WHARTON",
        "state": "NJ",
        "zipCode": "07885"
    },
    {
        "warehouseNumber": "116",
        "warehouseName": "Albuquerque",
        "latitude": 35.137,
        "longitude": -106.614,
        "address": "1420 N RENAISSANCE BLVD NE",
        "city": "ALBUQUERQUE",
        "state": "NM",
        "zipCode": "87107"
    },
    {
        "warehouseNumber": "1016",
        "warehouseName": "NW Albuquerque",
        "latitude": 35.195,
        "longitude": -106.661,
        "address": "9955 COORS BYPASS NW",
        "city": "ALBUQUERQUE",
        "state": "NM",
        "zipCode": "87114"
    },
    {
        "warehouseNumber": "667",
        "warehouseName": "SE Albuquerque",
        "latitude": 35.068,
        "longitude": -106.531,
        "address": "500 EUBANK BLVD SE",
        "city": "ALBUQUERQUE",
        "state": "NM",
        "zipCode": "87123"
    },
    {
        "warehouseNumber": "318",
        "warehouseName": "Brooklyn",
        "latitude": 40.655,
        "longitude": -74.009,
        "address": "976 3RD AVE",
        "city": "BROOKLYN",
        "state": "NY",
        "zipCode": "11232"
    },
    {
        "warehouseNumber": "240",
        "warehouseName": "Commack",
        "latitude": 40.807,
        "longitude": -73.286,
        "address": "10 GARET PL",
        "city": "COMMACK",
        "state": "NY",
        "zipCode": "11725"
    },
    {
        "warehouseNumber": "230",
        "warehouseName": "Holbrook",
        "latitude": 40.773,
        "longitude": -73.05,
        "address": "125 BEACON DR",
        "city": "HOLBROOK",
        "state": "NY",
        "zipCode": "11741"
    },
    {
        "warehouseNumber": "310",
        "warehouseName": "Lawrence",
        "latitude": 40.631,
        "longitude": -73.739,
        "address": "605 ROCKAWAY TPKE",
        "city": "LAWRENCE",
        "state": "NY",
        "zipCode": "11559"
    },
    {
        "warehouseNumber": "1062",
        "warehouseName": "Manhattan",
        "latitude": 40.796,
        "longitude": -73.931,
        "address": "517 E 117TH ST",
        "city": "NEW YORK",
        "state": "NY",
        "zipCode": "10035"
    },
    {
        "warehouseNumber": "237",
        "warehouseName": "Melville",
        "latitude": 40.758,
        "longitude": -73.421,
        "address": "625 BROADHOLLOW RD",
        "city": "MELVILLE",
        "state": "NY",
        "zipCode": "11747"
    },
    {
        "warehouseNumber": "305",
        "warehouseName": "Nanuet",
        "latitude": 41.107,
        "longitude": -74.025,
        "address": "50 OVERLOOK BLVD",
        "city": "NANUET",
        "state": "NY",
        "zipCode": "10954"
    },
    {
        "warehouseNumber": "206",
        "warehouseName": "Nesconset",
        "latitude": 40.86,
        "longitude": -73.13,
        "address": "3000 MIDDLE COUNTRY RD",
        "city": "NESCONSET",
        "state": "NY",
        "zipCode": "11767"
    },
    {
        "warehouseNumber": "241",
        "warehouseName": "New Rochelle",
        "latitude": 40.896,
        "longitude": -73.795,
        "address": "1 INDUSTRIAL LN",
        "city": "NEW ROCHELLE",
        "state": "NY",
        "zipCode": "10805"
    },
    {
        "warehouseNumber": "1215",
        "warehouseName": "Oceanside",
        "latitude": 40.619,
        "longitude": -73.652,
        "address": "3705 HAMPTON RD",
        "city": "OCEANSIDE",
        "state": "NY",
        "zipCode": "11572"
    },
    {
        "warehouseNumber": "326",
        "warehouseName": "Port Chester",
        "latitude": 41.0,
        "longitude": -73.661,
        "address": "1 WESTCHESTER AVE",
        "city": "PORT CHESTER",
        "state": "NY",
        "zipCode": "10573"
    },
    {
        "warehouseNumber": "243",
        "warehouseName": "Queens",
        "latitude": 40.768,
        "longitude": -73.939,
        "address": "3250 VERNON BLVD",
        "city": "LONG ISLAND CITY",
        "state": "NY",
        "zipCode": "11106"
    },
    {
        "warehouseNumber": "1070",
        "warehouseName": "Rego Park",
        "latitude": 40.733,
        "longitude": -73.863,
        "address": "6135 JUNCTION BLVD",
        "city": "REGO PARK",
        "state": "NY",
        "zipCode": "11374"
    },
    {
        "warehouseNumber": "785",
        "warehouseName": "Riverhead",
        "latitude": 40.927,
        "longitude": -72.707,
        "address": "1768 OLD COUNTRY RD",
        "city": "RIVERHEAD",
        "state": "NY",
        "zipCode": "11901"
    },
    {
        "warehouseNumber": "1195",
        "warehouseName": "Rochester NY",
        "latitude": 43.114,
        "longitude": -77.613,
        "address": "335 WESTFALL ROAD",
        "city": "ROCHESTER",
        "state": "NY",
        "zipCode": "14620"
    },
    {
        "warehouseNumber": "316",
        "warehouseName": "Staten Island",
        "latitude": 40.573,
        "longitude": -74.169,
        "address": "2975 RICHMOND AVE",
        "city": "STATEN ISLAND",
        "state": "NY",
        "zipCode": "10314"
    },
    {
        "warehouseNumber": "1176",
        "warehouseName": "Syracuse",
        "latitude": 43.057,
        "longitude": -76.268,
        "address": "120 TOWNSHIP BLVD",
        "city": "CAMILLUS",
        "state": "NY",
        "zipCode": "13031"
    },
    {
        "warehouseNumber": "226",
        "warehouseName": "Westbury",
        "latitude": 40.744,
        "longitude": -73.598,
        "address": "1250 OLD COUNTRY RD",
        "city": "WESTBURY",
        "state": "NY",
        "zipCode": "11590"
    },
    {
        "warehouseNumber": "321",
        "warehouseName": "Yonkers",
        "latitude": 40.974,
        "longitude": -73.862,
        "address": "20 STEW LEONARD DR",
        "city": "YONKERS",
        "state": "NY",
        "zipCode": "10710"
    },
    {
        "warehouseNumber": "1206",
        "warehouseName": "Apex",
        "latitude": 35.747,
        "longitude": -78.828,
        "address": "1021 PINE PLAZA DR",
        "city": "APEX",
        "state": "NC",
        "zipCode": "27523"
    },
    {
        "warehouseNumber": "359",
        "warehouseName": "Charlotte",
        "latitude": 35.162,
        "longitude": -80.885,
        "address": "500 TYVOLA RD",
        "city": "CHARLOTTE",
        "state": "NC",
        "zipCode": "28217"
    },
    {
        "warehouseNumber": "249",
        "warehouseName": "Durham",
        "latitude": 36.029,
        "longitude": -78.915,
        "address": "1510 N POINTE DR",
        "city": "DURHAM",
        "state": "NC",
        "zipCode": "27705"
    },
    {
        "warehouseNumber": "1587",
        "warehouseName": "Garner",
        "latitude": 35.668,
        "longitude": -78.699,
        "address": "7800 FAYETTEVILLE RD.",
        "city": "RALEIGH",
        "state": "NC",
        "zipCode": "27603"
    },
    {
        "warehouseNumber": "339",
        "warehouseName": "Greensboro",
        "latitude": 36.058,
        "longitude": -79.884,
        "address": "4201 W WENDOVER AVE",
        "city": "GREENSBORO",
        "state": "NC",
        "zipCode": "27407"
    },
    {
        "warehouseNumber": "367",
        "warehouseName": "Matthews",
        "latitude": 35.13,
        "longitude": -80.704,
        "address": "2125 MATTHEWS TOWNSHIP PKWY",
        "city": "MATTHEWS",
        "state": "NC",
        "zipCode": "28105"
    },
    {
        "warehouseNumber": "1333",
        "warehouseName": "Mooresville",
        "latitude": 35.582,
        "longitude": -80.855,
        "address": "392 TALBERT RD",
        "city": "MOORESVILLE",
        "state": "NC",
        "zipCode": "28117"
    },
    {
        "warehouseNumber": "645",
        "warehouseName": "Raleigh",
        "latitude": 35.818,
        "longitude": -78.622,
        "address": "2838 WAKE FOREST RD",
        "city": "RALEIGH",
        "state": "NC",
        "zipCode": "27609"
    },
    {
        "warehouseNumber": "635",
        "warehouseName": "Wilmington",
        "latitude": 34.248,
        "longitude": -77.873,
        "address": "5351 GINGERWOOD DR",
        "city": "WILMINGTON",
        "state": "NC",
        "zipCode": "28405"
    },
    {
        "warehouseNumber": "361",
        "warehouseName": "Winston Salem",
        "latitude": 36.065,
        "longitude": -80.318,
        "address": "1085 HANES MALL BLVD",
        "city": "WINSTON SALEM",
        "state": "NC",
        "zipCode": "27103"
    },
    {
        "warehouseNumber": "1380",
        "warehouseName": "Bismarck",
        "latitude": 46.865,
        "longitude": -100.77,
        "address": "1325 57TH AVE NE",
        "city": "BISMARCK",
        "state": "ND",
        "zipCode": "58503"
    },
    {
        "warehouseNumber": "1119",
        "warehouseName": "West Fargo ND",
        "latitude": 46.845,
        "longitude": -96.887,
        "address": "750 23RD AVE EAST",
        "city": "WEST FARGO",
        "state": "ND",
        "zipCode": "58078"
    },
    {
        "warehouseNumber": "343",
        "warehouseName": "Avon OH",
        "latitude": 41.46,
        "longitude": -82.011,
        "address": "35804 DETROIT ROAD",
        "city": "AVON",
        "state": "OH",
        "zipCode": "44011"
    },
    {
        "warehouseNumber": "1226",
        "warehouseName": "Boston Heights",
        "latitude": 41.265,
        "longitude": -81.507,
        "address": "6720 BASS PRO DR",
        "city": "BOSTON HEIGHTS",
        "state": "OH",
        "zipCode": "44236"
    },
    {
        "warehouseNumber": "1185",
        "warehouseName": "Centerville",
        "latitude": 39.662,
        "longitude": -84.107,
        "address": "5300 CORNERSTONE NORTH BLVD",
        "city": "CENTERVILLE",
        "state": "OH",
        "zipCode": "45440"
    },
    {
        "warehouseNumber": "632",
        "warehouseName": "Columbus",
        "latitude": 40.15,
        "longitude": -82.977,
        "address": "1500 GEMINI PL",
        "city": "COLUMBUS",
        "state": "OH",
        "zipCode": "43240"
    },
    {
        "warehouseNumber": "384",
        "warehouseName": "Deerfield",
        "latitude": 39.296,
        "longitude": -84.303,
        "address": "9691 WATERSTONE BLVD",
        "city": "CINCINNATI",
        "state": "OH",
        "zipCode": "45249"
    },
    {
        "warehouseNumber": "1160",
        "warehouseName": "Easton OH",
        "latitude": 40.054,
        "longitude": -82.905,
        "address": "3888 STELZER RD",
        "city": "COLUMBUS",
        "state": "OH",
        "zipCode": "43219"
    },
    {
        "warehouseNumber": "1632",
        "warehouseName": "Liberty Township",
        "latitude": 39.37,
        "longitude": -84.358,
        "address": "7135 VETERANS BOULEVARD",
        "city": "LIBERTY TOWNSHIP",
        "state": "OH",
        "zipCode": "45069"
    },
    {
        "warehouseNumber": "344",
        "warehouseName": "Mayfield Heights",
        "latitude": 41.524,
        "longitude": -81.447,
        "address": "1409 GOLDEN GATE BLVD",
        "city": "CLEVELAND",
        "state": "OH",
        "zipCode": "44124"
    },
    {
        "warehouseNumber": "1243",
        "warehouseName": "NW Columbus",
        "latitude": 40.11,
        "longitude": -83.189,
        "address": "7300 STATE ROUTE 161 E",
        "city": "PLAIN CITY",
        "state": "OH",
        "zipCode": "43064"
    },
    {
        "warehouseNumber": "1635",
        "warehouseName": "North Canton",
        "latitude": 40.886,
        "longitude": -81.44,
        "address": "4953 HUCKLEBERRY ST NW",
        "city": "NORTH CANTON",
        "state": "OH",
        "zipCode": "44720"
    },
    {
        "warehouseNumber": "1194",
        "warehouseName": "Perrysburg",
        "latitude": 41.535,
        "longitude": -83.633,
        "address": "26400 DIXIE HWY",
        "city": "PERRYSBURG",
        "state": "OH",
        "zipCode": "43551"
    },
    {
        "warehouseNumber": "625",
        "warehouseName": "Strongsville",
        "latitude": 41.317,
        "longitude": -81.816,
        "address": "16690 ROYALTON RD",
        "city": "STRONGSVILLE",
        "state": "OH",
        "zipCode": "44136"
    },
    {
        "warehouseNumber": "1007",
        "warehouseName": "Toledo",
        "latitude": 41.676,
        "longitude": -83.625,
        "address": "3405 W CENTRAL AVE",
        "city": "TOLEDO",
        "state": "OH",
        "zipCode": "43606"
    },
    {
        "warehouseNumber": "1444",
        "warehouseName": "Moore",
        "latitude": 35.314,
        "longitude": -97.496,
        "address": "2651 S. TELEPHONE RD",
        "city": "MOORE",
        "state": "OK",
        "zipCode": "73160"
    },
    {
        "warehouseNumber": "1640",
        "warehouseName": "North Tulsa",
        "latitude": 36.223,
        "longitude": -95.848,
        "address": "4816 N 118TH AVE E",
        "city": "TULSA",
        "state": "OK",
        "zipCode": "74116"
    },
    {
        "warehouseNumber": "1350",
        "warehouseName": "Oklahoma City",
        "latitude": 35.605,
        "longitude": -97.53,
        "address": "13200 N WESTERN AVE",
        "city": "OKLAHOMA CITY",
        "state": "OK",
        "zipCode": "73114"
    },
    {
        "warehouseNumber": "1207",
        "warehouseName": "Tulsa",
        "latitude": 36.014,
        "longitude": -95.889,
        "address": "10220 S MEMORIAL DR",
        "city": "TULSA",
        "state": "OK",
        "zipCode": "74133"
    },
    {
        "warehouseNumber": "682",
        "warehouseName": "Albany",
        "latitude": 44.638,
        "longitude": -123.066,
        "address": "3130 KILLDEER AVE SE",
        "city": "ALBANY",
        "state": "OR",
        "zipCode": "97322"
    },
    {
        "warehouseNumber": "9",
        "warehouseName": "Aloha",
        "latitude": 45.509,
        "longitude": -122.842,
        "address": "15901 SW JENKINS RD",
        "city": "ALOHA",
        "state": "OR",
        "zipCode": "97006"
    },
    {
        "warehouseNumber": "101",
        "warehouseName": "Bend",
        "latitude": 44.057,
        "longitude": -121.267,
        "address": "2500 NE HIGHWAY 20",
        "city": "BEND",
        "state": "OR",
        "zipCode": "97701"
    },
    {
        "warehouseNumber": "1287",
        "warehouseName": "Central Point",
        "latitude": 42.375,
        "longitude": -122.887,
        "address": "3075 HAMRICK ROAD",
        "city": "CENTRAL POINT",
        "state": "OR",
        "zipCode": "97502"
    },
    {
        "warehouseNumber": "97",
        "warehouseName": "Clackamas",
        "latitude": 45.428,
        "longitude": -122.574,
        "address": "13130 SE 84TH AVE",
        "city": "CLACKAMAS",
        "state": "OR",
        "zipCode": "97015"
    },
    {
        "warehouseNumber": "17",
        "warehouseName": "Eugene",
        "latitude": 44.089,
        "longitude": -123.065,
        "address": "2828 CHAD DR",
        "city": "EUGENE",
        "state": "OR",
        "zipCode": "97408"
    },
    {
        "warehouseNumber": "692",
        "warehouseName": "Hillsboro",
        "latitude": 45.536,
        "longitude": -122.935,
        "address": "1255 NE 48TH AVE",
        "city": "HILLSBORO",
        "state": "OR",
        "zipCode": "97124"
    },
    {
        "warehouseNumber": "2",
        "warehouseName": "Portland",
        "latitude": 45.559,
        "longitude": -122.524,
        "address": "4849 NE 138TH AVE",
        "city": "PORTLAND",
        "state": "OR",
        "zipCode": "97230"
    },
    {
        "warehouseNumber": "1073",
        "warehouseName": "Roseburg",
        "latitude": 43.26,
        "longitude": -123.35,
        "address": "4141 NE STEPHENS ST",
        "city": "ROSEBURG",
        "state": "OR",
        "zipCode": "97470"
    },
    {
        "warehouseNumber": "1492",
        "warehouseName": "Salem",
        "latitude": 44.884,
        "longitude": -123.007,
        "address": "4885 27TH AVE. SE",
        "city": "SALEM",
        "state": "OR",
        "zipCode": "97306"
    },
    {
        "warehouseNumber": "111",
        "warehouseName": "Tigard",
        "latitude": 45.435,
        "longitude": -122.758,
        "address": "7850 SW DARTMOUTH ST",
        "city": "TIGARD",
        "state": "OR",
        "zipCode": "97223"
    },
    {
        "warehouseNumber": "1059",
        "warehouseName": "Warrenton",
        "latitude": 46.147,
        "longitude": -123.914,
        "address": "1804 SE ENSIGN LN",
        "city": "WARRENTON",
        "state": "OR",
        "zipCode": "97146"
    },
    {
        "warehouseNumber": "766",
        "warehouseName": "Wilsonville",
        "latitude": 45.333,
        "longitude": -122.764,
        "address": "25900 SW HEATHER PL",
        "city": "WILSONVILLE",
        "state": "OR",
        "zipCode": "97070"
    },
    {
        "warehouseNumber": "1211",
        "warehouseName": "Allentown",
        "latitude": 40.566,
        "longitude": -75.558,
        "address": "791 N KROCKS RD",
        "city": "ALLENTOWN",
        "state": "PA",
        "zipCode": "18106"
    },
    {
        "warehouseNumber": "1103",
        "warehouseName": "Bucks County",
        "latitude": 40.197,
        "longitude": -75.08,
        "address": "100 VETERANS WAY",
        "city": "WARMINSTER",
        "state": "PA",
        "zipCode": "18974"
    },
    {
        "warehouseNumber": "1114",
        "warehouseName": "Concordville",
        "latitude": 39.89,
        "longitude": -75.532,
        "address": "700 EVERGREEN DR",
        "city": "GLEN MILLS",
        "state": "PA",
        "zipCode": "19342"
    },
    {
        "warehouseNumber": "328",
        "warehouseName": "Cranberry Township",
        "latitude": 40.691,
        "longitude": -80.108,
        "address": "1050 CRANBERRY SQUARE DR",
        "city": "CRANBERRY TOWNSHIP",
        "state": "PA",
        "zipCode": "16066"
    },
    {
        "warehouseNumber": "327",
        "warehouseName": "Harrisburg",
        "latitude": 40.307,
        "longitude": -76.798,
        "address": "5125 JONESTOWN RD STE 221",
        "city": "HARRISBURG",
        "state": "PA",
        "zipCode": "17112"
    },
    {
        "warehouseNumber": "649",
        "warehouseName": "Homestead",
        "latitude": 40.403,
        "longitude": -79.921,
        "address": "501 WATERFRONT DR W",
        "city": "HOMESTEAD",
        "state": "PA",
        "zipCode": "15120"
    },
    {
        "warehouseNumber": "245",
        "warehouseName": "King Of Prussia",
        "latitude": 40.091,
        "longitude": -75.386,
        "address": "201 ALLENDALE RD",
        "city": "KING OF PRUSSIA",
        "state": "PA",
        "zipCode": "19406"
    },
    {
        "warehouseNumber": "317",
        "warehouseName": "Lancaster PA",
        "latitude": 40.053,
        "longitude": -76.257,
        "address": "1875 HEMPSTEAD RD",
        "city": "LANCASTER",
        "state": "PA",
        "zipCode": "17601"
    },
    {
        "warehouseNumber": "248",
        "warehouseName": "Montgomeryville",
        "latitude": 40.237,
        "longitude": -75.234,
        "address": "740 UPPER STATE RD",
        "city": "NORTH WALES",
        "state": "PA",
        "zipCode": "19454"
    },
    {
        "warehouseNumber": "332",
        "warehouseName": "Robinson",
        "latitude": 40.459,
        "longitude": -80.166,
        "address": "202 COSTCO DR",
        "city": "PITTSBURGH",
        "state": "PA",
        "zipCode": "15205"
    },
    {
        "warehouseNumber": "1081",
        "warehouseName": "Sanatoga",
        "latitude": 40.238,
        "longitude": -75.576,
        "address": "14 W LIGHTCAP RD",
        "city": "POTTSTOWN",
        "state": "PA",
        "zipCode": "19464"
    },
    {
        "warehouseNumber": "365",
        "warehouseName": "Caguas",
        "latitude": 18.247,
        "longitude": -66.024,
        "address": "200 AVE RAFAEL CORDERO, PR#30",
        "city": "CAGUAS BAIROA WARD",
        "state": "PR",
        "zipCode": "00725"
    },
    {
        "warehouseNumber": "335",
        "warehouseName": "Carolina",
        "latitude": 18.4,
        "longitude": -65.997,
        "address": "1185 AVE 65 INFANTERIA",
        "city": "SAN JUAN",
        "state": "PR",
        "zipCode": "00924"
    },
    {
        "warehouseNumber": "363",
        "warehouseName": "E Bayamon",
        "latitude": 18.384,
        "longitude": -66.138,
        "address": "125 CALLE A",
        "city": "BAYAMON",
        "state": "PR",
        "zipCode": "00959"
    },
    {
        "warehouseNumber": "1622",
        "warehouseName": "Puerto Rico Home Showroom",
        "latitude": 18.357,
        "longitude": -66.054,
        "address": "CARR 176 KM 0.5",
        "city": "SAN JUAN",
        "state": "PR",
        "zipCode": "00926"
    },
    {
        "warehouseNumber": "364",
        "warehouseName": "W Bayamon",
        "latitude": 18.404,
        "longitude": -66.195,
        "address": "PR-2, KM 15.5",
        "city": "BAYAMON",
        "state": "PR",
        "zipCode": "00961"
    },
    {
        "warehouseNumber": "360",
        "warehouseName": "Charleston",
        "latitude": 32.795,
        "longitude": -80.036,
        "address": "3050 ASHLEY TOWN CENTER DR",
        "city": "CHARLESTON",
        "state": "SC",
        "zipCode": "29414"
    },
    {
        "warehouseNumber": "1232",
        "warehouseName": "Columbia SC",
        "latitude": 34.071,
        "longitude": -81.14,
        "address": "507 PINEY GROVE RD",
        "city": "COLUMBIA",
        "state": "SC",
        "zipCode": "29210"
    },
    {
        "warehouseNumber": "1005",
        "warehouseName": "Greenville",
        "latitude": 34.836,
        "longitude": -82.311,
        "address": "1021 WOODRUFF RD",
        "city": "GREENVILLE",
        "state": "SC",
        "zipCode": "29607"
    },
    {
        "warehouseNumber": "1319",
        "warehouseName": "Mt Pleasant",
        "latitude": 32.882,
        "longitude": -79.77,
        "address": "3525 PARK AVENUE BLVD",
        "city": "MOUNT PLEASANT",
        "state": "SC",
        "zipCode": "29466"
    },
    {
        "warehouseNumber": "338",
        "warehouseName": "Myrtle Beach",
        "latitude": 33.706,
        "longitude": -78.916,
        "address": "1021 OAK FOREST LN",
        "city": "MYRTLE BEACH",
        "state": "SC",
        "zipCode": "29577"
    },
    {
        "warehouseNumber": "1008",
        "warehouseName": "Spartanburg",
        "latitude": 34.94,
        "longitude": -81.997,
        "address": "211 W BLACKSTOCK RD",
        "city": "SPARTANBURG",
        "state": "SC",
        "zipCode": "29301"
    },
    {
        "warehouseNumber": "1159",
        "warehouseName": "Sioux Falls",
        "latitude": 43.513,
        "longitude": -96.74,
        "address": "3700 S GRANGE AVE",
        "city": "SIOUX FALLS",
        "state": "SD",
        "zipCode": "57105"
    },
    {
        "warehouseNumber": "386",
        "warehouseName": "Brentwood TN",
        "latitude": 35.964,
        "longitude": -86.817,
        "address": "98 SEABOARD LN",
        "city": "BRENTWOOD",
        "state": "TN",
        "zipCode": "37027"
    },
    {
        "warehouseNumber": "1116",
        "warehouseName": "Farragut",
        "latitude": 35.896,
        "longitude": -84.14,
        "address": "10745 KINGSTON PIKE",
        "city": "KNOXVILLE",
        "state": "TN",
        "zipCode": "37934"
    },
    {
        "warehouseNumber": "1659",
        "warehouseName": "Hendersonville",
        "latitude": 36.329,
        "longitude": -86.623,
        "address": "1101 FOREST RETREAT RD",
        "city": "HENDERSONVILLE",
        "state": "TN",
        "zipCode": "37075"
    },
    {
        "warehouseNumber": "1686",
        "warehouseName": "Mt Juliet",
        "latitude": 36.182,
        "longitude": -86.463,
        "address": "100 LEGACY POINTE BLVD.",
        "city": "MT. JULIET",
        "state": "TN",
        "zipCode": "37122"
    },
    {
        "warehouseNumber": "1448",
        "warehouseName": "Murfreesboro",
        "latitude": 35.826,
        "longitude": -86.417,
        "address": "1524 BEASIE RD",
        "city": "MURFREESBORO",
        "state": "TN",
        "zipCode": "37128"
    },
    {
        "warehouseNumber": "352",
        "warehouseName": "NE Memphis",
        "latitude": 35.192,
        "longitude": -89.795,
        "address": "2431 N GERMANTOWN PKWY",
        "city": "CORDOVA",
        "state": "TN",
        "zipCode": "38016"
    },
    {
        "warehouseNumber": "353",
        "warehouseName": "SE Memphis",
        "latitude": 35.046,
        "longitude": -89.797,
        "address": "3775 HACKS CROSS RD",
        "city": "MEMPHIS",
        "state": "TN",
        "zipCode": "38125"
    },
    {
        "warehouseNumber": "630",
        "warehouseName": "W Nashville",
        "latitude": 36.14,
        "longitude": -86.885,
        "address": "6670 CHARLOTTE PIKE",
        "city": "NASHVILLE",
        "state": "TN",
        "zipCode": "37209"
    },
    {
        "warehouseNumber": "668",
        "warehouseName": "Arlington",
        "latitude": 32.684,
        "longitude": -97.113,
        "address": "600 W ARBROOK BLVD",
        "city": "ARLINGTON",
        "state": "TX",
        "zipCode": "76014"
    },
    {
        "warehouseNumber": "681",
        "warehouseName": "Austin",
        "latitude": 30.396,
        "longitude": -97.744,
        "address": "10401 RESEARCH BLVD",
        "city": "AUSTIN",
        "state": "TX",
        "zipCode": "78759"
    },
    {
        "warehouseNumber": "680",
        "warehouseName": "Bunker Hill",
        "latitude": 29.787,
        "longitude": -95.529,
        "address": "1150 BUNKER HILL RD",
        "city": "HOUSTON",
        "state": "TX",
        "zipCode": "77055"
    },
    {
        "warehouseNumber": "1152",
        "warehouseName": "Cedar Park TX",
        "latitude": 30.527,
        "longitude": -97.819,
        "address": "4601 183A TOLL RD",
        "city": "CEDAR PARK",
        "state": "TX",
        "zipCode": "78613"
    },
    {
        "warehouseNumber": "1645",
        "warehouseName": "Celina",
        "latitude": 33.279,
        "longitude": -96.784,
        "address": "OWNSBY PKWY",
        "city": "CELINA",
        "state": "TX",
        "zipCode": "75009"
    },
    {
        "warehouseNumber": "1614",
        "warehouseName": "College Station",
        "latitude": 30.567,
        "longitude": -96.263,
        "address": "4321 STATE HWY 6 SOUTH",
        "city": "COLLEGE STATION",
        "state": "TX",
        "zipCode": "77845"
    },
    {
        "warehouseNumber": "1208",
        "warehouseName": "Cypress TX",
        "latitude": 29.979,
        "longitude": -95.712,
        "address": "26960 NW FREEWAY",
        "city": "CYPRESS",
        "state": "TX",
        "zipCode": "77433"
    },
    {
        "warehouseNumber": "1266",
        "warehouseName": "Dallas",
        "latitude": 32.919,
        "longitude": -96.768,
        "address": "8055 CHURCHILL WAY",
        "city": "DALLAS",
        "state": "TX",
        "zipCode": "75251"
    },
    {
        "warehouseNumber": "655",
        "warehouseName": "Dallas Business Center",
        "latitude": 32.869,
        "longitude": -96.764,
        "address": "8282 PARK LN",
        "city": "DALLAS",
        "state": "TX",
        "zipCode": "75231"
    },
    {
        "warehouseNumber": "636",
        "warehouseName": "Duncanville",
        "latitude": 32.621,
        "longitude": -96.91,
        "address": "250 W HIGHWAY 67",
        "city": "DUNCANVILLE",
        "state": "TX",
        "zipCode": "75137"
    },
    {
        "warehouseNumber": "664",
        "warehouseName": "E Plano",
        "latitude": 33.044,
        "longitude": -96.7,
        "address": "3800 N CENTRAL EXPY",
        "city": "PLANO",
        "state": "TX",
        "zipCode": "75074"
    },
    {
        "warehouseNumber": "768",
        "warehouseName": "El Paso",
        "latitude": 31.783,
        "longitude": -106.41,
        "address": "6101 GATEWAY BLVD W SUITE #1",
        "city": "EL PASO",
        "state": "TX",
        "zipCode": "79925"
    },
    {
        "warehouseNumber": "489",
        "warehouseName": "Fort Worth",
        "latitude": 32.677,
        "longitude": -97.409,
        "address": "5300 OVERTON RIDGE BLVD",
        "city": "FORT WORTH",
        "state": "TX",
        "zipCode": "76132"
    },
    {
        "warehouseNumber": "1097",
        "warehouseName": "Frisco",
        "latitude": 33.172,
        "longitude": -96.838,
        "address": "11220 DALLAS PKWY",
        "city": "FRISCO",
        "state": "TX",
        "zipCode": "75033"
    },
    {
        "warehouseNumber": "1018",
        "warehouseName": "Galleria",
        "latitude": 29.735,
        "longitude": -95.439,
        "address": "3836 RICHMOND AVE",
        "city": "HOUSTON",
        "state": "TX",
        "zipCode": "77027"
    },
    {
        "warehouseNumber": "1385",
        "warehouseName": "Georgetown",
        "latitude": 30.677,
        "longitude": -97.664,
        "address": "2201A N IH 35",
        "city": "GEORGETOWN",
        "state": "TX",
        "zipCode": "78628"
    },
    {
        "warehouseNumber": "1228",
        "warehouseName": "Humble",
        "latitude": 30.021,
        "longitude": -95.267,
        "address": "21802 TOWNSEN BLVD W.",
        "city": "HUMBLE",
        "state": "TX",
        "zipCode": "77338"
    },
    {
        "warehouseNumber": "1629",
        "warehouseName": "Kyle",
        "latitude": 30.002,
        "longitude": -97.867,
        "address": "19086 IH 35",
        "city": "KYLE",
        "state": "TX",
        "zipCode": "78640"
    },
    {
        "warehouseNumber": "683",
        "warehouseName": "Lewisville",
        "latitude": 32.998,
        "longitude": -96.964,
        "address": "851 STATE HIGHWAY 121 BYP",
        "city": "LEWISVILLE",
        "state": "TX",
        "zipCode": "75067"
    },
    {
        "warehouseNumber": "1163",
        "warehouseName": "Lubbock TX",
        "latitude": 33.564,
        "longitude": -101.947,
        "address": "6020 34TH ST",
        "city": "LUBBOCK",
        "state": "TX",
        "zipCode": "79407"
    },
    {
        "warehouseNumber": "1284",
        "warehouseName": "McKinney",
        "latitude": 33.219,
        "longitude": -96.66,
        "address": "3650 W UNIVERSITY DR",
        "city": "MCKINNEY",
        "state": "TX",
        "zipCode": "75071"
    },
    {
        "warehouseNumber": "1173",
        "warehouseName": "N Fort Worth",
        "latitude": 32.901,
        "longitude": -97.321,
        "address": "8900 TEHAMA RIDGE PKWY",
        "city": "FORT WORTH",
        "state": "TX",
        "zipCode": "76177"
    },
    {
        "warehouseNumber": "689",
        "warehouseName": "NW San Antonio",
        "latitude": 29.576,
        "longitude": -98.597,
        "address": "5611 UTSA BLVD",
        "city": "SAN ANTONIO",
        "state": "TX",
        "zipCode": "78249"
    },
    {
        "warehouseNumber": "1221",
        "warehouseName": "Pearland",
        "latitude": 29.544,
        "longitude": -95.39,
        "address": "3500 BUSINESS CENTER DRIVE",
        "city": "PEARLAND",
        "state": "TX",
        "zipCode": "77584"
    },
    {
        "warehouseNumber": "1322",
        "warehouseName": "Pflugerville",
        "latitude": 30.469,
        "longitude": -97.591,
        "address": "1901 KELLY LN",
        "city": "PFLUGERVILLE",
        "state": "TX",
        "zipCode": "78660"
    },
    {
        "warehouseNumber": "1108",
        "warehouseName": "Pharr",
        "latitude": 26.193,
        "longitude": -98.202,
        "address": "1501 W KELLY AVE",
        "city": "PHARR",
        "state": "TX",
        "zipCode": "78577"
    },
    {
        "warehouseNumber": "1697",
        "warehouseName": "Richmond TX",
        "latitude": 29.649,
        "longitude": -95.706,
        "address": "11125 W GRAND PKWY S",
        "city": "RICHMOND",
        "state": "TX",
        "zipCode": "77406"
    },
    {
        "warehouseNumber": "1049",
        "warehouseName": "Rockwall",
        "latitude": 32.908,
        "longitude": -96.446,
        "address": "1225 STATE HIGHWAY 276",
        "city": "ROCKWALL",
        "state": "TX",
        "zipCode": "75032"
    },
    {
        "warehouseNumber": "641",
        "warehouseName": "S Austin",
        "latitude": 30.219,
        "longitude": -97.842,
        "address": "4301 W WILLIAM CANNON DR BLDG A STE",
        "city": "AUSTIN",
        "state": "TX",
        "zipCode": "78749"
    },
    {
        "warehouseNumber": "1006",
        "warehouseName": "Selma",
        "latitude": 29.576,
        "longitude": -98.319,
        "address": "15330 IH-35 NORTH",
        "city": "SELMA",
        "state": "TX",
        "zipCode": "78154"
    },
    {
        "warehouseNumber": "693",
        "warehouseName": "Sonterra Park",
        "latitude": 29.612,
        "longitude": -98.475,
        "address": "1201 N LOOP 1604 E",
        "city": "SAN ANTONIO",
        "state": "TX",
        "zipCode": "78232"
    },
    {
        "warehouseNumber": "669",
        "warehouseName": "Southlake",
        "latitude": 32.942,
        "longitude": -97.111,
        "address": "2601 E STATE HIGHWAY 114",
        "city": "SOUTHLAKE",
        "state": "TX",
        "zipCode": "76092"
    },
    {
        "warehouseNumber": "1487",
        "warehouseName": "Stafford Business Center",
        "latitude": 29.638,
        "longitude": -95.577,
        "address": "12717 NETWORK DR",
        "city": "STAFFORD",
        "state": "TX",
        "zipCode": "77477"
    },
    {
        "warehouseNumber": "1146",
        "warehouseName": "Sugar Land",
        "latitude": 29.586,
        "longitude": -95.644,
        "address": "17520 SOUTHWEST FWY",
        "city": "SUGAR LAND",
        "state": "TX",
        "zipCode": "77479"
    },
    {
        "warehouseNumber": "1687",
        "warehouseName": "Tomball",
        "latitude": 30.07,
        "longitude": -95.622,
        "address": "27000 TOMBALL PKWY",
        "city": "TOMBALL",
        "state": "TX",
        "zipCode": "77375"
    },
    {
        "warehouseNumber": "1167",
        "warehouseName": "W Katy",
        "latitude": 29.783,
        "longitude": -95.781,
        "address": "23645 KATY FREEWAY",
        "city": "KATY",
        "state": "TX",
        "zipCode": "77494"
    },
    {
        "warehouseNumber": "684",
        "warehouseName": "W Plano",
        "latitude": 33.024,
        "longitude": -96.832,
        "address": "1701 DALLAS PKWY",
        "city": "PLANO",
        "state": "TX",
        "zipCode": "75093"
    },
    {
        "warehouseNumber": "1449",
        "warehouseName": "W San Antonio",
        "latitude": 29.431,
        "longitude": -98.715,
        "address": "191 W LOOP 1604 S",
        "city": "SAN ANTONIO",
        "state": "TX",
        "zipCode": "78245"
    },
    {
        "warehouseNumber": "1330",
        "warehouseName": "Webster",
        "latitude": 29.533,
        "longitude": -95.139,
        "address": "1310 JASMINE AVE",
        "city": "WEBSTER",
        "state": "TX",
        "zipCode": "77598"
    },
    {
        "warehouseNumber": "675",
        "warehouseName": "Willowbrook",
        "latitude": 29.955,
        "longitude": -95.547,
        "address": "12405 N GESSNER RD",
        "city": "HOUSTON",
        "state": "TX",
        "zipCode": "77064"
    },
    {
        "warehouseNumber": "1189",
        "warehouseName": "Woodlands",
        "latitude": 30.209,
        "longitude": -95.453,
        "address": "8185 HIGHWAY 242",
        "city": "CONROE",
        "state": "TX",
        "zipCode": "77385"
    },
    {
        "warehouseNumber": "735",
        "warehouseName": "Bountiful",
        "latitude": 40.89,
        "longitude": -111.895,
        "address": "573 W 100 N",
        "city": "WEST BOUNTIFUL",
        "state": "UT",
        "zipCode": "84010"
    },
    {
        "warehouseNumber": "733",
        "warehouseName": "Lehi",
        "latitude": 40.389,
        "longitude": -111.823,
        "address": "198 N 1200 E",
        "city": "LEHI",
        "state": "UT",
        "zipCode": "84043"
    },
    {
        "warehouseNumber": "1633",
        "warehouseName": "Logan",
        "latitude": 41.752,
        "longitude": -111.857,
        "address": "1160 N 1000 W",
        "city": "LOGAN",
        "state": "UT",
        "zipCode": "84321"
    },
    {
        "warehouseNumber": "764",
        "warehouseName": "Murray",
        "latitude": 40.658,
        "longitude": -111.89,
        "address": "5201 S INTERMOUNTAIN DR",
        "city": "MURRAY",
        "state": "UT",
        "zipCode": "84107"
    },
    {
        "warehouseNumber": "484",
        "warehouseName": "Orem",
        "latitude": 40.28,
        "longitude": -111.68,
        "address": "648 E 800 S",
        "city": "OREM",
        "state": "UT",
        "zipCode": "84097"
    },
    {
        "warehouseNumber": "1441",
        "warehouseName": "Riverton",
        "latitude": 40.513,
        "longitude": -112.002,
        "address": "13126 S. EAGLES FLIGHT RD",
        "city": "RIVERTON",
        "state": "UT",
        "zipCode": "84096"
    },
    {
        "warehouseNumber": "113",
        "warehouseName": "Salt Lake City",
        "latitude": 40.731,
        "longitude": -111.902,
        "address": "1818 S 300 W",
        "city": "SALT LAKE CITY",
        "state": "UT",
        "zipCode": "84115"
    },
    {
        "warehouseNumber": "487",
        "warehouseName": "Sandy",
        "latitude": 40.55,
        "longitude": -111.895,
        "address": "11100 S AUTO MALL DR",
        "city": "SANDY",
        "state": "UT",
        "zipCode": "84070"
    },
    {
        "warehouseNumber": "1383",
        "warehouseName": "Saratoga Springs",
        "latitude": 40.382,
        "longitude": -111.918,
        "address": "1083 N REDWOOD RD.",
        "city": "SARATOGA SPRINGS",
        "state": "UT",
        "zipCode": "84045"
    },
    {
        "warehouseNumber": "1019",
        "warehouseName": "South Jordan",
        "latitude": 40.56,
        "longitude": -111.975,
        "address": "3571 W 10400 S",
        "city": "SOUTH JORDAN",
        "state": "UT",
        "zipCode": "84095"
    },
    {
        "warehouseNumber": "770",
        "warehouseName": "South Ogden",
        "latitude": 41.196,
        "longitude": -111.978,
        "address": "3656 WALL AVE",
        "city": "OGDEN",
        "state": "UT",
        "zipCode": "84405"
    },
    {
        "warehouseNumber": "1118",
        "warehouseName": "Spanish Fork",
        "latitude": 40.124,
        "longitude": -111.649,
        "address": "273 E 1000 N",
        "city": "SPANISH FORK",
        "state": "UT",
        "zipCode": "84660"
    },
    {
        "warehouseNumber": "672",
        "warehouseName": "St George",
        "latitude": 37.122,
        "longitude": -113.522,
        "address": "835 N 3050 E",
        "city": "SAINT GEORGE",
        "state": "UT",
        "zipCode": "84790"
    },
    {
        "warehouseNumber": "622",
        "warehouseName": "West Valley",
        "latitude": 40.69,
        "longitude": -111.954,
        "address": "3747 S 2700 W",
        "city": "SALT LAKE CITY",
        "state": "UT",
        "zipCode": "84119"
    },
    {
        "warehouseNumber": "314",
        "warehouseName": "Colchester",
        "latitude": 44.504,
        "longitude": -73.175,
        "address": "218 LOWER MOUNTAIN VIEW DR",
        "city": "COLCHESTER",
        "state": "VT",
        "zipCode": "05446"
    },
    {
        "warehouseNumber": "334",
        "warehouseName": "Chantilly",
        "latitude": 38.896,
        "longitude": -77.443,
        "address": "14390 CHANTILLY CROSSING LN",
        "city": "CHANTILLY",
        "state": "VA",
        "zipCode": "20151"
    },
    {
        "warehouseNumber": "1184",
        "warehouseName": "Charlottesville",
        "latitude": 38.068,
        "longitude": -78.49,
        "address": "3171 DISTRICT AVE",
        "city": "CHARLOTTESVILLE",
        "state": "VA",
        "zipCode": "22901"
    },
    {
        "warehouseNumber": "1089",
        "warehouseName": "Chesterfield",
        "latitude": 37.514,
        "longitude": -77.605,
        "address": "1401 MALL DR",
        "city": "NORTH CHESTERFIELD",
        "state": "VA",
        "zipCode": "23235"
    },
    {
        "warehouseNumber": "204",
        "warehouseName": "Fairfax",
        "latitude": 38.849,
        "longitude": -77.372,
        "address": "4725 W OX RD",
        "city": "FAIRFAX",
        "state": "VA",
        "zipCode": "22030"
    },
    {
        "warehouseNumber": "340",
        "warehouseName": "Fredericksburg",
        "latitude": 38.29,
        "longitude": -77.516,
        "address": "3102 PLANK RD # 600",
        "city": "FREDERICKSBURG",
        "state": "VA",
        "zipCode": "22407"
    },
    {
        "warehouseNumber": "238",
        "warehouseName": "Harrisonburg",
        "latitude": 38.428,
        "longitude": -78.857,
        "address": "1830 RESERVOIR ST",
        "city": "HARRISONBURG",
        "state": "VA",
        "zipCode": "22801"
    },
    {
        "warehouseNumber": "337",
        "warehouseName": "Leesburg",
        "latitude": 39.115,
        "longitude": -77.533,
        "address": "1300 EDWARDS FERRY RD NE",
        "city": "LEESBURG",
        "state": "VA",
        "zipCode": "20176"
    },
    {
        "warehouseNumber": "225",
        "warehouseName": "Manassas",
        "latitude": 38.784,
        "longitude": -77.517,
        "address": "10701 SUDLEY MANOR DR",
        "city": "MANASSAS",
        "state": "VA",
        "zipCode": "20109"
    },
    {
        "warehouseNumber": "1115",
        "warehouseName": "Mt Vernon",
        "latitude": 38.742,
        "longitude": -77.088,
        "address": "7940 RICHMOND HWY",
        "city": "ALEXANDRIA",
        "state": "VA",
        "zipCode": "22306"
    },
    {
        "warehouseNumber": "227",
        "warehouseName": "Newington",
        "latitude": 38.74,
        "longitude": -77.197,
        "address": "7373 BOSTON BLVD",
        "city": "SPRINGFIELD",
        "state": "VA",
        "zipCode": "22153"
    },
    {
        "warehouseNumber": "247",
        "warehouseName": "Newport News",
        "latitude": 37.106,
        "longitude": -76.497,
        "address": "12121 JEFFERSON AVE",
        "city": "NEWPORT NEWS",
        "state": "VA",
        "zipCode": "23602"
    },
    {
        "warehouseNumber": "202",
        "warehouseName": "Norfolk",
        "latitude": 36.852,
        "longitude": -76.2,
        "address": "850 GLENROCK RD",
        "city": "NORFOLK",
        "state": "VA",
        "zipCode": "23502"
    },
    {
        "warehouseNumber": "233",
        "warehouseName": "Pentagon City",
        "latitude": 38.861,
        "longitude": -77.057,
        "address": "1200 S FERN ST",
        "city": "ARLINGTON",
        "state": "VA",
        "zipCode": "22202"
    },
    {
        "warehouseNumber": "626",
        "warehouseName": "Potomac Mills",
        "latitude": 38.642,
        "longitude": -77.292,
        "address": "2700 POTOMAC MILLS CIRCLE",
        "city": "WOODBRIDGE",
        "state": "VA",
        "zipCode": "22192"
    },
    {
        "warehouseNumber": "218",
        "warehouseName": "Sterling",
        "latitude": 39.024,
        "longitude": -77.402,
        "address": "21398 PRICE CASCADES PLZ",
        "city": "STERLING",
        "state": "VA",
        "zipCode": "20164"
    },
    {
        "warehouseNumber": "205",
        "warehouseName": "W Henrico",
        "latitude": 37.642,
        "longitude": -77.561,
        "address": "9650 W BROAD ST",
        "city": "GLEN ALLEN",
        "state": "VA",
        "zipCode": "23060"
    },
    {
        "warehouseNumber": "239",
        "warehouseName": "Winchester",
        "latitude": 39.158,
        "longitude": -78.156,
        "address": "251 FRONT ROYAL PIKE",
        "city": "WINCHESTER",
        "state": "VA",
        "zipCode": "22602"
    },
    {
        "warehouseNumber": "106",
        "warehouseName": "Aurora Village",
        "latitude": 47.775,
        "longitude": -122.344,
        "address": "1175 N 205TH ST",
        "city": "SHORELINE",
        "state": "WA",
        "zipCode": "98133"
    },
    {
        "warehouseNumber": "1216",
        "warehouseName": "Bellingham",
        "latitude": 48.792,
        "longitude": -122.514,
        "address": "4125 ARCTIC AVE",
        "city": "BELLINGHAM",
        "state": "WA",
        "zipCode": "98226"
    },
    {
        "warehouseNumber": "1278",
        "warehouseName": "Bonney Lake",
        "latitude": 47.167,
        "longitude": -122.159,
        "address": "9801 204TH AVE E",
        "city": "BONNEY LAKE",
        "state": "WA",
        "zipCode": "98391"
    },
    {
        "warehouseNumber": "662",
        "warehouseName": "Burlington WA",
        "latitude": 48.454,
        "longitude": -122.338,
        "address": "1725 S BURLINGTON BLVD",
        "city": "BURLINGTON",
        "state": "WA",
        "zipCode": "98233"
    },
    {
        "warehouseNumber": "103",
        "warehouseName": "Clarkston",
        "latitude": 46.423,
        "longitude": -117.042,
        "address": "301 5TH ST",
        "city": "CLARKSTON",
        "state": "WA",
        "zipCode": "99403"
    },
    {
        "warehouseNumber": "1029",
        "warehouseName": "Covington WA",
        "latitude": 47.355,
        "longitude": -122.121,
        "address": "27520 COVINGTON WAY SE",
        "city": "COVINGTON",
        "state": "WA",
        "zipCode": "98042"
    },
    {
        "warehouseNumber": "1086",
        "warehouseName": "E Vancouver WA",
        "latitude": 45.622,
        "longitude": -122.473,
        "address": "19610 SE 1ST ST",
        "city": "CAMAS",
        "state": "WA",
        "zipCode": "98607"
    },
    {
        "warehouseNumber": "114",
        "warehouseName": "Everett WA",
        "latitude": 47.904,
        "longitude": -122.21,
        "address": "10200 19TH AVE SE",
        "city": "EVERETT",
        "state": "WA",
        "zipCode": "98208"
    },
    {
        "warehouseNumber": "61",
        "warehouseName": "Federal Way",
        "latitude": 47.287,
        "longitude": -122.31,
        "address": "35100 ENCHANTED PKWY S",
        "city": "FEDERAL WAY",
        "state": "WA",
        "zipCode": "98003"
    },
    {
        "warehouseNumber": "767",
        "warehouseName": "Fife Business Center",
        "latitude": 47.238,
        "longitude": -122.374,
        "address": "3900 20TH ST E",
        "city": "FIFE",
        "state": "WA",
        "zipCode": "98424"
    },
    {
        "warehouseNumber": "624",
        "warehouseName": "Gig Harbor",
        "latitude": 47.358,
        "longitude": -122.604,
        "address": "10990 HARBOR HILL DR NW",
        "city": "GIG HARBOR",
        "state": "WA",
        "zipCode": "98332"
    },
    {
        "warehouseNumber": "110",
        "warehouseName": "Issaquah",
        "latitude": 47.551,
        "longitude": -122.052,
        "address": "1801 10TH AVE NW",
        "city": "ISSAQUAH",
        "state": "WA",
        "zipCode": "98027"
    },
    {
        "warehouseNumber": "486",
        "warehouseName": "Kennewick",
        "latitude": 46.226,
        "longitude": -119.235,
        "address": "8505 W. GAGE BLVD",
        "city": "KENNEWICK",
        "state": "WA",
        "zipCode": "99336"
    },
    {
        "warehouseNumber": "8",
        "warehouseName": "Kirkland",
        "latitude": 47.681,
        "longitude": -122.181,
        "address": "8629 120TH AVE NE",
        "city": "KIRKLAND",
        "state": "WA",
        "zipCode": "98033"
    },
    {
        "warehouseNumber": "740",
        "warehouseName": "Lacey",
        "latitude": 47.059,
        "longitude": -122.761,
        "address": "1470 MARVIN RD NE",
        "city": "LACEY",
        "state": "WA",
        "zipCode": "98516"
    },
    {
        "warehouseNumber": "1588",
        "warehouseName": "Lake Stevens",
        "latitude": 47.975,
        "longitude": -122.105,
        "address": "9210 24TH STREET SE",
        "city": "LAKE STEVENS",
        "state": "WA",
        "zipCode": "98258"
    },
    {
        "warehouseNumber": "1190",
        "warehouseName": "Lynnwood",
        "latitude": 47.834,
        "longitude": -122.273,
        "address": "18109 33RD AVE W",
        "city": "LYNNWOOD",
        "state": "WA",
        "zipCode": "98037"
    },
    {
        "warehouseNumber": "115",
        "warehouseName": "Lynnwood Business Center",
        "latitude": 47.826,
        "longitude": -122.31,
        "address": "19105 HIGHWAY 99",
        "city": "LYNNWOOD",
        "state": "WA",
        "zipCode": "98036"
    },
    {
        "warehouseNumber": "642",
        "warehouseName": "Marysville WA",
        "latitude": 48.148,
        "longitude": -122.191,
        "address": "16616 TWIN LAKES AVE",
        "city": "MARYSVILLE",
        "state": "WA",
        "zipCode": "98271"
    },
    {
        "warehouseNumber": "1298",
        "warehouseName": "N Spokane",
        "latitude": 47.766,
        "longitude": -117.383,
        "address": "12020 N NEWPORT HWY",
        "city": "SPOKANE",
        "state": "WA",
        "zipCode": "99218"
    },
    {
        "warehouseNumber": "660",
        "warehouseName": "Puyallup",
        "latitude": 47.156,
        "longitude": -122.309,
        "address": "1201 39TH AVE SW",
        "city": "PUYALLUP",
        "state": "WA",
        "zipCode": "98373"
    },
    {
        "warehouseNumber": "1225",
        "warehouseName": "Redmond",
        "latitude": 47.673,
        "longitude": -122.091,
        "address": "7725 188TH AVE NE",
        "city": "REDMOND",
        "state": "WA",
        "zipCode": "98052"
    },
    {
        "warehouseNumber": "1703",
        "warehouseName": "Ridgefield",
        "latitude": 45.82,
        "longitude": -122.693,
        "address": "519 N. 56TH PL.",
        "city": "RIDGEFIELD",
        "state": "WA",
        "zipCode": "98642"
    },
    {
        "warehouseNumber": "1",
        "warehouseName": "Seattle",
        "latitude": 47.565,
        "longitude": -122.331,
        "address": "4401 4TH AVE S",
        "city": "SEATTLE",
        "state": "WA",
        "zipCode": "98134"
    },
    {
        "warehouseNumber": "639",
        "warehouseName": "Sequim",
        "latitude": 48.077,
        "longitude": -123.126,
        "address": "955 W WASHINGTON ST",
        "city": "SEQUIM",
        "state": "WA",
        "zipCode": "98382"
    },
    {
        "warehouseNumber": "13",
        "warehouseName": "Silverdale",
        "latitude": 47.657,
        "longitude": -122.68,
        "address": "10000 MICKELBERRY RD NW",
        "city": "SILVERDALE",
        "state": "WA",
        "zipCode": "98383"
    },
    {
        "warehouseNumber": "670",
        "warehouseName": "Spokane",
        "latitude": 47.658,
        "longitude": -117.333,
        "address": "5601 E SPRAGUE AVE",
        "city": "SPOKANE",
        "state": "WA",
        "zipCode": "99212"
    },
    {
        "warehouseNumber": "95",
        "warehouseName": "Tacoma",
        "latitude": 47.225,
        "longitude": -122.468,
        "address": "2219 S 37TH ST",
        "city": "TACOMA",
        "state": "WA",
        "zipCode": "98409"
    },
    {
        "warehouseNumber": "6",
        "warehouseName": "Tukwila",
        "latitude": 47.446,
        "longitude": -122.248,
        "address": "400 COSTCO DR STE 150",
        "city": "TUKWILA",
        "state": "WA",
        "zipCode": "98188"
    },
    {
        "warehouseNumber": "64",
        "warehouseName": "Tumwater",
        "latitude": 46.997,
        "longitude": -122.916,
        "address": "5500 LITTLEROCK RD SW",
        "city": "TUMWATER",
        "state": "WA",
        "zipCode": "98512"
    },
    {
        "warehouseNumber": "1013",
        "warehouseName": "Union Gap",
        "latitude": 46.563,
        "longitude": -120.5,
        "address": "2310 LONGFIBRE RD",
        "city": "UNION GAP",
        "state": "WA",
        "zipCode": "98903"
    },
    {
        "warehouseNumber": "772",
        "warehouseName": "Vancouver WA",
        "latitude": 45.685,
        "longitude": -122.605,
        "address": "6720 NE 84TH ST",
        "city": "VANCOUVER",
        "state": "WA",
        "zipCode": "98665"
    },
    {
        "warehouseNumber": "112",
        "warehouseName": "Wenatchee",
        "latitude": 47.401,
        "longitude": -120.281,
        "address": "375 HIGHLINE DR",
        "city": "EAST WENATCHEE",
        "state": "WA",
        "zipCode": "98802"
    },
    {
        "warehouseNumber": "747",
        "warehouseName": "Woodinville",
        "latitude": 47.78,
        "longitude": -122.148,
        "address": "24008 SNOHOMISH WOODINVILLE RD",
        "city": "WOODINVILLE",
        "state": "WA",
        "zipCode": "98072"
    },
    {
        "warehouseNumber": "1162",
        "warehouseName": "Bellevue (Green Bay)",
        "latitude": 44.458,
        "longitude": -87.986,
        "address": "2355 COSTCO WAY",
        "city": "BELLEVUE",
        "state": "WI",
        "zipCode": "54311"
    },
    {
        "warehouseNumber": "1664",
        "warehouseName": "Eau Claire",
        "latitude": 44.831,
        "longitude": -91.451,
        "address": "1420 BLACK AVENUE",
        "city": "EAU CLAIRE",
        "state": "WI",
        "zipCode": "54703"
    },
    {
        "warehouseNumber": "628",
        "warehouseName": "Grafton",
        "latitude": 43.324,
        "longitude": -87.922,
        "address": "950 PORT WASHINGTON RD",
        "city": "GRAFTON",
        "state": "WI",
        "zipCode": "53024"
    },
    {
        "warehouseNumber": "1222",
        "warehouseName": "Grand Chute",
        "latitude": 44.271,
        "longitude": -88.488,
        "address": "5401 W. INTEGRITY WAY",
        "city": "GRAND CHUTE",
        "state": "WI",
        "zipCode": "54913"
    },
    {
        "warehouseNumber": "1209",
        "warehouseName": "Menomonee Falls",
        "latitude": 43.185,
        "longitude": -88.112,
        "address": "W162N9235 PERSHING AVE",
        "city": "MENOMONEE FALLS",
        "state": "WI",
        "zipCode": "53051"
    },
    {
        "warehouseNumber": "1020",
        "warehouseName": "Middleton",
        "latitude": 43.1,
        "longitude": -89.522,
        "address": "2150 DEMING WAY",
        "city": "MIDDLETON",
        "state": "WI",
        "zipCode": "53562"
    },
    {
        "warehouseNumber": "1212",
        "warehouseName": "New Berlin",
        "latitude": 42.945,
        "longitude": -88.106,
        "address": "15300 WEST GRANGE AVE",
        "city": "NEW BERLIN",
        "state": "WI",
        "zipCode": "53151"
    },
    {
        "warehouseNumber": "1101",
        "warehouseName": "Pewaukee",
        "latitude": 43.089,
        "longitude": -88.231,
        "address": "443 PEWAUKEE RD",
        "city": "PEWAUKEE",
        "state": "WI",
        "zipCode": "53072"
    },
    {
        "warehouseNumber": "1198",
        "warehouseName": "Pleasant Prairie",
        "latitude": 42.564,
        "longitude": -87.92,
        "address": "7707 94TH AVE",
        "city": "PLEASANT PRAIRIE",
        "state": "WI",
        "zipCode": "53158"
    },
    {
        "warehouseNumber": "1121",
        "warehouseName": "Sun Prairie",
        "latitude": 43.167,
        "longitude": -89.274,
        "address": "2850 HOEPKER RD",
        "city": "SUN PRAIRIE",
        "state": "WI",
        "zipCode": "53590"
    },
    {
        "warehouseNumber": "1491",
        "warehouseName": "Verona",
        "latitude": 42.971,
        "longitude": -89.509,
        "address": "1000 BATKER COURT",
        "city": "VERONA",
        "state": "WI",
        "zipCode": "53593"
    }
]
